{"type":"FeatureCollection","features":[{"type":"Feature","properties":{"name":"Naje","amenity":null,"leisure":"fitness_centre","tourism":null,"osm_type":"node","osm_id":1947633560,"source":"OpenStreetMap contributors"},"geometry":{"type":"Point","coordinates":[1.8491348,50.9570602]}},{"type":"Feature","properties":{"name":"Club Fit Center","amenity":null,"leisure":"fitness_centre","tourism":null,"osm_type":"node","osm_id":1964444750,"source":"OpenStreetMap contributors"},"geometry":{"type":"Point","coordinates":[1.8544848,50.9481202]}},{"type":"Feature","properties":{"name":null,"amenity":null,"leisure":"sports_centre","tourism":null,"osm_type":"node","osm_id":2059742066,"source":"OpenStreetMap contributors"},"geometry":{"type":"Point","coordinates":[1.8658472,50.9419552]}},{"type":"Feature","properties":{"name":"AMC face à la Manche","amenity":null,"leisure":"pitch","tourism":null,"osm_type":"node","osm_id":4970854929,"source":"OpenStreetMap contributors"},"geometry":{"type":"Point","coordinates":[1.8053412,50.9498858]}},{"type":"Feature","properties":{"name":"Salle Edgar Quinet","amenity":null,"leisure":"pitch","tourism":null,"osm_type":"node","osm_id":6123609560,"source":"OpenStreetMap contributors"},"geometry":{"type":"Point","coordinates":[1.8438074,50.9475933]}},{"type":"Feature","properties":{"name":null,"amenity":null,"leisure":"pitch","tourism":null,"osm_type":"node","osm_id":8575983713,"source":"OpenStreetMap contributors"},"geometry":{"type":"Point","coordinates":[1.8018816,50.9332858]}},{"type":"Feature","properties":{"name":null,"amenity":null,"leisure":"pitch","tourism":null,"osm_type":"node","osm_id":8575983714,"source":"OpenStreetMap contributors"},"geometry":{"type":"Point","coordinates":[1.802095,50.9334432]}},{"type":"Feature","properties":{"name":null,"amenity":null,"leisure":"pitch","tourism":null,"osm_type":"node","osm_id":9923986086,"source":"OpenStreetMap contributors"},"geometry":{"type":"Point","coordinates":[1.8512745,50.9326614]}},{"type":"Feature","properties":{"name":null,"amenity":null,"leisure":"pitch","tourism":null,"osm_type":"node","osm_id":9923986089,"source":"OpenStreetMap contributors"},"geometry":{"type":"Point","coordinates":[1.8526953,50.9257779]}},{"type":"Feature","properties":{"name":"City Stade Salengro","amenity":null,"leisure":"pitch","tourism":null,"osm_type":"node","osm_id":11648724106,"source":"OpenStreetMap contributors"},"geometry":{"type":"Point","coordinates":[1.8328067,50.9448306]}},{"type":"Feature","properties":{"name":null,"amenity":null,"leisure":"pitch","tourism":null,"osm_type":"node","osm_id":11648726805,"source":"OpenStreetMap contributors"},"geometry":{"type":"Point","coordinates":[1.836831,50.9465183]}},{"type":"Feature","properties":{"name":"City stade Ajaccio","amenity":null,"leisure":"pitch","tourism":null,"osm_type":"node","osm_id":11648727390,"source":"OpenStreetMap contributors"},"geometry":{"type":"Point","coordinates":[1.8279026,50.9496428]}},{"type":"Feature","properties":{"name":null,"amenity":null,"leisure":"swimming_pool","tourism":null,"osm_type":"node","osm_id":12088401821,"source":"OpenStreetMap contributors"},"geometry":{"type":"Point","coordinates":[1.8541802,50.9415535]}},{"type":"Feature","properties":{"name":null,"amenity":null,"leisure":"swimming_pool","tourism":null,"osm_type":"node","osm_id":12088401822,"source":"OpenStreetMap contributors"},"geometry":{"type":"Point","coordinates":[1.8520065,50.9412402]}},{"type":"Feature","properties":{"name":null,"amenity":null,"leisure":"swimming_pool","tourism":null,"osm_type":"node","osm_id":12088401823,"source":"OpenStreetMap contributors"},"geometry":{"type":"Point","coordinates":[1.8522657,50.9390902]}},{"type":"Feature","properties":{"name":null,"amenity":null,"leisure":"swimming_pool","tourism":null,"osm_type":"node","osm_id":12088401824,"source":"OpenStreetMap contributors"},"geometry":{"type":"Point","coordinates":[1.8519366,50.9394474]}},{"type":"Feature","properties":{"name":"Giga Fit","amenity":null,"leisure":"fitness_centre","tourism":null,"osm_type":"node","osm_id":12341772486,"source":"OpenStreetMap contributors"},"geometry":{"type":"Point","coordinates":[1.8113268,50.9370699]}},{"type":"Feature","properties":{"name":"Quai 121","amenity":null,"leisure":"sports_centre","tourism":null,"osm_type":"node","osm_id":12341772521,"source":"OpenStreetMap contributors"},"geometry":{"type":"Point","coordinates":[1.8085311,50.9354774]}},{"type":"Feature","properties":{"name":null,"amenity":null,"leisure":"pitch","tourism":null,"osm_type":"node","osm_id":13946159348,"source":"OpenStreetMap contributors"},"geometry":{"type":"Point","coordinates":[1.8748154,50.9395884]}},{"type":"Feature","properties":{"name":"Pumptrak","amenity":null,"leisure":"pitch","tourism":null,"osm_type":"node","osm_id":13966041129,"source":"OpenStreetMap contributors"},"geometry":{"type":"Point","coordinates":[1.9273358,50.9079893]}},{"type":"Feature","properties":{"name":"Gymnase Delphine Ledoux","amenity":null,"leisure":"sports_centre","tourism":null,"osm_type":"way","osm_id":53815270,"source":"OpenStreetMap contributors"},"geometry":{"type":"Point","coordinates":[1.8448555,50.9638306]}},{"type":"Feature","properties":{"name":"Stade Géo André","amenity":null,"leisure":"sports_centre","tourism":null,"osm_type":"way","osm_id":54240661,"source":"OpenStreetMap contributors"},"geometry":{"type":"Point","coordinates":[1.8361657,50.9445997]}},{"type":"Feature","properties":{"name":null,"amenity":null,"leisure":"pitch","tourism":null,"osm_type":"way","osm_id":56320643,"source":"OpenStreetMap contributors"},"geometry":{"type":"Point","coordinates":[1.8813341,50.9404813]}},{"type":"Feature","properties":{"name":null,"amenity":null,"leisure":"pitch","tourism":null,"osm_type":"way","osm_id":56320645,"source":"OpenStreetMap contributors"},"geometry":{"type":"Point","coordinates":[1.8823756,50.9468785]}},{"type":"Feature","properties":{"name":null,"amenity":null,"leisure":"pitch","tourism":null,"osm_type":"way","osm_id":56320647,"source":"OpenStreetMap contributors"},"geometry":{"type":"Point","coordinates":[1.8807841,50.9468076]}},{"type":"Feature","properties":{"name":null,"amenity":null,"leisure":"pitch","tourism":null,"osm_type":"way","osm_id":56696041,"source":"OpenStreetMap contributors"},"geometry":{"type":"Point","coordinates":[1.8865133,50.9556298]}},{"type":"Feature","properties":{"name":null,"amenity":null,"leisure":"pitch","tourism":null,"osm_type":"way","osm_id":56696451,"source":"OpenStreetMap contributors"},"geometry":{"type":"Point","coordinates":[1.8902494,50.9549401]}},{"type":"Feature","properties":{"name":null,"amenity":null,"leisure":"pitch","tourism":null,"osm_type":"way","osm_id":57388336,"source":"OpenStreetMap contributors"},"geometry":{"type":"Point","coordinates":[1.8799143,50.9603922]}},{"type":"Feature","properties":{"name":null,"amenity":null,"leisure":"pitch","tourism":null,"osm_type":"way","osm_id":57388337,"source":"OpenStreetMap contributors"},"geometry":{"type":"Point","coordinates":[1.8790962,50.9602474]}},{"type":"Feature","properties":{"name":null,"amenity":null,"leisure":"pitch","tourism":null,"osm_type":"way","osm_id":57394014,"source":"OpenStreetMap contributors"},"geometry":{"type":"Point","coordinates":[1.8564546,50.9373648]}},{"type":"Feature","properties":{"name":null,"amenity":null,"leisure":"pitch","tourism":null,"osm_type":"way","osm_id":91596968,"source":"OpenStreetMap contributors"},"geometry":{"type":"Point","coordinates":[1.8144425,50.9113706]}},{"type":"Feature","properties":{"name":null,"amenity":null,"leisure":"pitch","tourism":null,"osm_type":"way","osm_id":91603157,"source":"OpenStreetMap contributors"},"geometry":{"type":"Point","coordinates":[1.8823461,50.9241657]}},{"type":"Feature","properties":{"name":null,"amenity":null,"leisure":"pitch","tourism":null,"osm_type":"way","osm_id":103540061,"source":"OpenStreetMap contributors"},"geometry":{"type":"Point","coordinates":[1.8838728,50.9281677]}},{"type":"Feature","properties":{"name":"Salle Porte de Lille","amenity":null,"leisure":"sports_centre","tourism":null,"osm_type":"way","osm_id":104567675,"source":"OpenStreetMap contributors"},"geometry":{"type":"Point","coordinates":[1.8541945,50.9372345]}},{"type":"Feature","properties":{"name":"Piscine Émile Ranson","amenity":null,"leisure":"sports_centre","tourism":null,"osm_type":"way","osm_id":104688648,"source":"OpenStreetMap contributors"},"geometry":{"type":"Point","coordinates":[1.847389,50.9553945]}},{"type":"Feature","properties":{"name":"Salle de Sports Cosec Vauban","amenity":null,"leisure":"sports_centre","tourism":null,"osm_type":"way","osm_id":105044568,"source":"OpenStreetMap contributors"},"geometry":{"type":"Point","coordinates":[1.8323265,50.949184]}},{"type":"Feature","properties":{"name":"Boulodrome Roland Ansel","amenity":null,"leisure":"pitch","tourism":null,"osm_type":"way","osm_id":105044962,"source":"OpenStreetMap contributors"},"geometry":{"type":"Point","coordinates":[1.8328545,50.949396]}},{"type":"Feature","properties":{"name":null,"amenity":null,"leisure":"sports_centre","tourism":null,"osm_type":"way","osm_id":105385032,"source":"OpenStreetMap contributors"},"geometry":{"type":"Point","coordinates":[1.8510685,50.932088]}},{"type":"Feature","properties":{"name":"Calypso","amenity":null,"leisure":"sports_centre","tourism":null,"osm_type":"way","osm_id":105449762,"source":"OpenStreetMap contributors"},"geometry":{"type":"Point","coordinates":[1.8887056,50.9559918]}},{"type":"Feature","properties":{"name":"Salle de sports Vadez","amenity":null,"leisure":"sports_centre","tourism":null,"osm_type":"way","osm_id":105452183,"source":"OpenStreetMap contributors"},"geometry":{"type":"Point","coordinates":[1.880139,50.951664]}},{"type":"Feature","properties":{"name":"Basic-Fit","amenity":null,"leisure":"fitness_centre","tourism":null,"osm_type":"way","osm_id":106760089,"source":"OpenStreetMap contributors"},"geometry":{"type":"Point","coordinates":[1.8050365,50.942268]}},{"type":"Feature","properties":{"name":"Espace Calquella","amenity":null,"leisure":"sports_centre","tourism":null,"osm_type":"way","osm_id":106760300,"source":"OpenStreetMap contributors"},"geometry":{"type":"Point","coordinates":[1.802958,50.93218]}},{"type":"Feature","properties":{"name":null,"amenity":null,"leisure":"fitness_centre","tourism":null,"osm_type":"way","osm_id":106761816,"source":"OpenStreetMap contributors"},"geometry":{"type":"Point","coordinates":[1.854927,50.925683]}},{"type":"Feature","properties":{"name":null,"amenity":null,"leisure":"pitch","tourism":null,"osm_type":"way","osm_id":106800166,"source":"OpenStreetMap contributors"},"geometry":{"type":"Point","coordinates":[1.8016485,50.93423]}},{"type":"Feature","properties":{"name":null,"amenity":null,"leisure":"pitch","tourism":null,"osm_type":"way","osm_id":106800170,"source":"OpenStreetMap contributors"},"geometry":{"type":"Point","coordinates":[1.8027262,50.9340536]}},{"type":"Feature","properties":{"name":"Zap'Ados","amenity":null,"leisure":"pitch","tourism":null,"osm_type":"way","osm_id":125791314,"source":"OpenStreetMap contributors"},"geometry":{"type":"Point","coordinates":[1.869842,50.9428825]}},{"type":"Feature","properties":{"name":"Basic-Fit","amenity":null,"leisure":"fitness_centre","tourism":null,"osm_type":"way","osm_id":125801277,"source":"OpenStreetMap contributors"},"geometry":{"type":"Point","coordinates":[1.8663445,50.945543]}},{"type":"Feature","properties":{"name":null,"amenity":null,"leisure":"pitch","tourism":null,"osm_type":"way","osm_id":157241795,"source":"OpenStreetMap contributors"},"geometry":{"type":"Point","coordinates":[1.842772,50.9470583]}},{"type":"Feature","properties":{"name":null,"amenity":null,"leisure":"pitch","tourism":null,"osm_type":"way","osm_id":164391799,"source":"OpenStreetMap contributors"},"geometry":{"type":"Point","coordinates":[1.7786262,50.8917298]}},{"type":"Feature","properties":{"name":null,"amenity":null,"leisure":"pitch","tourism":null,"osm_type":"way","osm_id":166476624,"source":"OpenStreetMap contributors"},"geometry":{"type":"Point","coordinates":[1.8413024,50.9572945]}},{"type":"Feature","properties":{"name":"Salle Nouvelle France","amenity":null,"leisure":"pitch","tourism":null,"osm_type":"way","osm_id":177278308,"source":"OpenStreetMap contributors"},"geometry":{"type":"Point","coordinates":[1.87686,50.939214]}},{"type":"Feature","properties":{"name":null,"amenity":null,"leisure":"pitch","tourism":null,"osm_type":"way","osm_id":189686646,"source":"OpenStreetMap contributors"},"geometry":{"type":"Point","coordinates":[1.8807614,50.9450938]}},{"type":"Feature","properties":{"name":"Complexe Icéo","amenity":null,"leisure":"sports_centre","tourism":null,"osm_type":"way","osm_id":192496278,"source":"OpenStreetMap contributors"},"geometry":{"type":"Point","coordinates":[1.8968022,50.9559793]}},{"type":"Feature","properties":{"name":"Stade de l'Épopée","amenity":null,"leisure":"stadium","tourism":null,"osm_type":"way","osm_id":192497296,"source":"OpenStreetMap contributors"},"geometry":{"type":"Point","coordinates":[1.9018123,50.9570002]}},{"type":"Feature","properties":{"name":null,"amenity":null,"leisure":"pitch","tourism":null,"osm_type":"way","osm_id":192501720,"source":"OpenStreetMap contributors"},"geometry":{"type":"Point","coordinates":[1.8797122,50.9546146]}},{"type":"Feature","properties":{"name":null,"amenity":null,"leisure":"pitch","tourism":null,"osm_type":"way","osm_id":192513212,"source":"OpenStreetMap contributors"},"geometry":{"type":"Point","coordinates":[1.8449058,50.962931]}},{"type":"Feature","properties":{"name":"Base de voile Tom Souville","amenity":null,"leisure":"sports_centre","tourism":null,"osm_type":"way","osm_id":221211451,"source":"OpenStreetMap contributors"},"geometry":{"type":"Point","coordinates":[1.7993402,50.9542414]}},{"type":"Feature","properties":{"name":"Salle Jules Boulart","amenity":null,"leisure":"sports_centre","tourism":null,"osm_type":"way","osm_id":221212035,"source":"OpenStreetMap contributors"},"geometry":{"type":"Point","coordinates":[1.811295,50.9565005]}},{"type":"Feature","properties":{"name":"Salle André Segard","amenity":null,"leisure":"sports_centre","tourism":null,"osm_type":"way","osm_id":221215512,"source":"OpenStreetMap contributors"},"geometry":{"type":"Point","coordinates":[1.8118955,50.9561495]}},{"type":"Feature","properties":{"name":"Complexe sportif des Dryades","amenity":null,"leisure":"sports_centre","tourism":null,"osm_type":"way","osm_id":223821283,"source":"OpenStreetMap contributors"},"geometry":{"type":"Point","coordinates":[1.929052,50.9561779]}},{"type":"Feature","properties":{"name":null,"amenity":null,"leisure":"pitch","tourism":null,"osm_type":"way","osm_id":223821407,"source":"OpenStreetMap contributors"},"geometry":{"type":"Point","coordinates":[1.933824,50.9551176]}},{"type":"Feature","properties":{"name":null,"amenity":null,"leisure":"pitch","tourism":null,"osm_type":"way","osm_id":223821408,"source":"OpenStreetMap contributors"},"geometry":{"type":"Point","coordinates":[1.9338407,50.9558723]}},{"type":"Feature","properties":{"name":null,"amenity":null,"leisure":"pitch","tourism":null,"osm_type":"way","osm_id":223821409,"source":"OpenStreetMap contributors"},"geometry":{"type":"Point","coordinates":[1.931749,50.9563088]}},{"type":"Feature","properties":{"name":null,"amenity":null,"leisure":"pitch","tourism":null,"osm_type":"way","osm_id":223821410,"source":"OpenStreetMap contributors"},"geometry":{"type":"Point","coordinates":[1.9336487,50.9546306]}},{"type":"Feature","properties":{"name":null,"amenity":null,"leisure":"pitch","tourism":null,"osm_type":"way","osm_id":223821411,"source":"OpenStreetMap contributors"},"geometry":{"type":"Point","coordinates":[1.9355296,50.9558251]}},{"type":"Feature","properties":{"name":null,"amenity":null,"leisure":"pitch","tourism":null,"osm_type":"way","osm_id":223821412,"source":"OpenStreetMap contributors"},"geometry":{"type":"Point","coordinates":[1.9353573,50.9551971]}},{"type":"Feature","properties":{"name":null,"amenity":null,"leisure":"pitch","tourism":null,"osm_type":"way","osm_id":223866343,"source":"OpenStreetMap contributors"},"geometry":{"type":"Point","coordinates":[1.9031241,50.94952]}},{"type":"Feature","properties":{"name":null,"amenity":null,"leisure":"pitch","tourism":null,"osm_type":"way","osm_id":223866344,"source":"OpenStreetMap contributors"},"geometry":{"type":"Point","coordinates":[1.9040552,50.9484402]}},{"type":"Feature","properties":{"name":null,"amenity":null,"leisure":"pitch","tourism":null,"osm_type":"way","osm_id":223866345,"source":"OpenStreetMap contributors"},"geometry":{"type":"Point","coordinates":[1.9043242,50.9494591]}},{"type":"Feature","properties":{"name":null,"amenity":null,"leisure":"pitch","tourism":null,"osm_type":"way","osm_id":230734210,"source":"OpenStreetMap contributors"},"geometry":{"type":"Point","coordinates":[1.7775698,50.8925408]}},{"type":"Feature","properties":{"name":"Tennis Club Coulogne courts Daniel Mathieu","amenity":null,"leisure":"sports_centre","tourism":null,"osm_type":"way","osm_id":231727839,"source":"OpenStreetMap contributors"},"geometry":{"type":"Point","coordinates":[1.8847618,50.9294277]}},{"type":"Feature","properties":{"name":null,"amenity":null,"leisure":"pitch","tourism":null,"osm_type":"way","osm_id":239327397,"source":"OpenStreetMap contributors"},"geometry":{"type":"Point","coordinates":[1.7684431,50.9493697]}},{"type":"Feature","properties":{"name":null,"amenity":null,"leisure":"pitch","tourism":null,"osm_type":"way","osm_id":239327398,"source":"OpenStreetMap contributors"},"geometry":{"type":"Point","coordinates":[1.7674899,50.9488795]}},{"type":"Feature","properties":{"name":null,"amenity":null,"leisure":"pitch","tourism":null,"osm_type":"way","osm_id":239327399,"source":"OpenStreetMap contributors"},"geometry":{"type":"Point","coordinates":[1.8117493,50.9549699]}},{"type":"Feature","properties":{"name":null,"amenity":null,"leisure":"pitch","tourism":null,"osm_type":"way","osm_id":239327400,"source":"OpenStreetMap contributors"},"geometry":{"type":"Point","coordinates":[1.8129181,50.9550557]}},{"type":"Feature","properties":{"name":null,"amenity":null,"leisure":"pitch","tourism":null,"osm_type":"way","osm_id":239327402,"source":"OpenStreetMap contributors"},"geometry":{"type":"Point","coordinates":[1.7689146,50.9488608]}},{"type":"Feature","properties":{"name":null,"amenity":null,"leisure":"pitch","tourism":null,"osm_type":"way","osm_id":251468792,"source":"OpenStreetMap contributors"},"geometry":{"type":"Point","coordinates":[1.9973687,50.9919663]}},{"type":"Feature","properties":{"name":null,"amenity":null,"leisure":"swimming_pool","tourism":null,"osm_type":"way","osm_id":251468793,"source":"OpenStreetMap contributors"},"geometry":{"type":"Point","coordinates":[1.997155,50.9921791]}},{"type":"Feature","properties":{"name":null,"amenity":null,"leisure":"pitch","tourism":null,"osm_type":"way","osm_id":266407887,"source":"OpenStreetMap contributors"},"geometry":{"type":"Point","coordinates":[1.841821,50.9560425]}},{"type":"Feature","properties":{"name":null,"amenity":null,"leisure":"pitch","tourism":null,"osm_type":"way","osm_id":290044860,"source":"OpenStreetMap contributors"},"geometry":{"type":"Point","coordinates":[1.8029163,50.9309401]}},{"type":"Feature","properties":{"name":null,"amenity":null,"leisure":"pitch","tourism":null,"osm_type":"way","osm_id":290493313,"source":"OpenStreetMap contributors"},"geometry":{"type":"Point","coordinates":[1.9289213,50.9059878]}},{"type":"Feature","properties":{"name":null,"amenity":null,"leisure":"pitch","tourism":null,"osm_type":"way","osm_id":290493314,"source":"OpenStreetMap contributors"},"geometry":{"type":"Point","coordinates":[1.9276465,50.9070896]}},{"type":"Feature","properties":{"name":null,"amenity":null,"leisure":"pitch","tourism":null,"osm_type":"way","osm_id":290493315,"source":"OpenStreetMap contributors"},"geometry":{"type":"Point","coordinates":[1.9290664,50.906768]}},{"type":"Feature","properties":{"name":null,"amenity":null,"leisure":"pitch","tourism":null,"osm_type":"way","osm_id":293777662,"source":"OpenStreetMap contributors"},"geometry":{"type":"Point","coordinates":[1.9067183,50.9606689]}},{"type":"Feature","properties":{"name":null,"amenity":null,"leisure":"pitch","tourism":null,"osm_type":"way","osm_id":293777663,"source":"OpenStreetMap contributors"},"geometry":{"type":"Point","coordinates":[1.9067065,50.9617954]}},{"type":"Feature","properties":{"name":null,"amenity":null,"leisure":"pitch","tourism":null,"osm_type":"way","osm_id":293777664,"source":"OpenStreetMap contributors"},"geometry":{"type":"Point","coordinates":[1.9066981,50.9629165]}},{"type":"Feature","properties":{"name":null,"amenity":null,"leisure":"pitch","tourism":null,"osm_type":"way","osm_id":293777665,"source":"OpenStreetMap contributors"},"geometry":{"type":"Point","coordinates":[1.9081005,50.962756]}},{"type":"Feature","properties":{"name":null,"amenity":null,"leisure":"pitch","tourism":null,"osm_type":"way","osm_id":293777666,"source":"OpenStreetMap contributors"},"geometry":{"type":"Point","coordinates":[1.9081036,50.9615651]}},{"type":"Feature","properties":{"name":null,"amenity":null,"leisure":"pitch","tourism":null,"osm_type":"way","osm_id":293777667,"source":"OpenStreetMap contributors"},"geometry":{"type":"Point","coordinates":[1.9067269,50.9595467]}},{"type":"Feature","properties":{"name":null,"amenity":null,"leisure":"pitch","tourism":null,"osm_type":"way","osm_id":293777668,"source":"OpenStreetMap contributors"},"geometry":{"type":"Point","coordinates":[1.9081292,50.9595481]}},{"type":"Feature","properties":{"name":null,"amenity":null,"leisure":"pitch","tourism":null,"osm_type":"way","osm_id":293777669,"source":"OpenStreetMap contributors"},"geometry":{"type":"Point","coordinates":[1.9096324,50.9597518]}},{"type":"Feature","properties":{"name":null,"amenity":null,"leisure":"pitch","tourism":null,"osm_type":"way","osm_id":293777670,"source":"OpenStreetMap contributors"},"geometry":{"type":"Point","coordinates":[1.9096643,50.9618198]}},{"type":"Feature","properties":{"name":null,"amenity":null,"leisure":"pitch","tourism":null,"osm_type":"way","osm_id":295143180,"source":"OpenStreetMap contributors"},"geometry":{"type":"Point","coordinates":[1.9694805,50.9818549]}},{"type":"Feature","properties":{"name":null,"amenity":null,"leisure":"pitch","tourism":null,"osm_type":"way","osm_id":295143181,"source":"OpenStreetMap contributors"},"geometry":{"type":"Point","coordinates":[1.968985,50.982363]}},{"type":"Feature","properties":{"name":null,"amenity":null,"leisure":"pitch","tourism":null,"osm_type":"way","osm_id":295752953,"source":"OpenStreetMap contributors"},"geometry":{"type":"Point","coordinates":[1.9376748,50.9662828]}},{"type":"Feature","properties":{"name":null,"amenity":null,"leisure":"pitch","tourism":null,"osm_type":"way","osm_id":307084851,"source":"OpenStreetMap contributors"},"geometry":{"type":"Point","coordinates":[1.8429336,50.9536201]}},{"type":"Feature","properties":{"name":null,"amenity":null,"leisure":"pitch","tourism":null,"osm_type":"way","osm_id":308105397,"source":"OpenStreetMap contributors"},"geometry":{"type":"Point","coordinates":[1.8838434,50.9295932]}},{"type":"Feature","properties":{"name":null,"amenity":null,"leisure":"pitch","tourism":null,"osm_type":"way","osm_id":322102305,"source":"OpenStreetMap contributors"},"geometry":{"type":"Point","coordinates":[1.9987278,50.9148565]}},{"type":"Feature","properties":{"name":null,"amenity":null,"leisure":"pitch","tourism":null,"osm_type":"way","osm_id":325996243,"source":"OpenStreetMap contributors"},"geometry":{"type":"Point","coordinates":[1.8300234,50.8920869]}},{"type":"Feature","properties":{"name":null,"amenity":null,"leisure":"pitch","tourism":null,"osm_type":"way","osm_id":326107347,"source":"OpenStreetMap contributors"},"geometry":{"type":"Point","coordinates":[1.9018203,50.9570052]}},{"type":"Feature","properties":{"name":null,"amenity":null,"leisure":"pitch","tourism":null,"osm_type":"way","osm_id":331311695,"source":"OpenStreetMap contributors"},"geometry":{"type":"Point","coordinates":[1.836582,50.9483972]}},{"type":"Feature","properties":{"name":null,"amenity":null,"leisure":"pitch","tourism":null,"osm_type":"way","osm_id":331335396,"source":"OpenStreetMap contributors"},"geometry":{"type":"Point","coordinates":[1.8229624,50.9451023]}},{"type":"Feature","properties":{"name":null,"amenity":null,"leisure":"pitch","tourism":null,"osm_type":"way","osm_id":363811005,"source":"OpenStreetMap contributors"},"geometry":{"type":"Point","coordinates":[1.8993203,50.9268448]}},{"type":"Feature","properties":{"name":null,"amenity":null,"leisure":"pitch","tourism":null,"osm_type":"way","osm_id":365538403,"source":"OpenStreetMap contributors"},"geometry":{"type":"Point","coordinates":[2.0176647,50.9424919]}},{"type":"Feature","properties":{"name":null,"amenity":null,"leisure":"pitch","tourism":null,"osm_type":"way","osm_id":369630833,"source":"OpenStreetMap contributors"},"geometry":{"type":"Point","coordinates":[1.8438978,50.9553748]}},{"type":"Feature","properties":{"name":null,"amenity":null,"leisure":"pitch","tourism":null,"osm_type":"way","osm_id":369630834,"source":"OpenStreetMap contributors"},"geometry":{"type":"Point","coordinates":[1.8418892,50.9583731]}},{"type":"Feature","properties":{"name":null,"amenity":null,"leisure":"pitch","tourism":null,"osm_type":"way","osm_id":369630835,"source":"OpenStreetMap contributors"},"geometry":{"type":"Point","coordinates":[1.8444065,50.9554246]}},{"type":"Feature","properties":{"name":null,"amenity":null,"leisure":"pitch","tourism":null,"osm_type":"way","osm_id":369630836,"source":"OpenStreetMap contributors"},"geometry":{"type":"Point","coordinates":[1.8422449,50.9579158]}},{"type":"Feature","properties":{"name":null,"amenity":null,"leisure":"pitch","tourism":null,"osm_type":"way","osm_id":369630837,"source":"OpenStreetMap contributors"},"geometry":{"type":"Point","coordinates":[1.8441523,50.9553989]}},{"type":"Feature","properties":{"name":null,"amenity":null,"leisure":"pitch","tourism":null,"osm_type":"way","osm_id":369630838,"source":"OpenStreetMap contributors"},"geometry":{"type":"Point","coordinates":[1.842172,50.9584153]}},{"type":"Feature","properties":{"name":null,"amenity":null,"leisure":"pitch","tourism":null,"osm_type":"way","osm_id":369630839,"source":"OpenStreetMap contributors"},"geometry":{"type":"Point","coordinates":[1.843645,50.9553489]}},{"type":"Feature","properties":{"name":null,"amenity":null,"leisure":"pitch","tourism":null,"osm_type":"way","osm_id":369630840,"source":"OpenStreetMap contributors"},"geometry":{"type":"Point","coordinates":[1.8410117,50.9547021]}},{"type":"Feature","properties":{"name":null,"amenity":null,"leisure":"pitch","tourism":null,"osm_type":"way","osm_id":369630841,"source":"OpenStreetMap contributors"},"geometry":{"type":"Point","coordinates":[1.8444886,50.9550803]}},{"type":"Feature","properties":{"name":null,"amenity":null,"leisure":"pitch","tourism":null,"osm_type":"way","osm_id":369630842,"source":"OpenStreetMap contributors"},"geometry":{"type":"Point","coordinates":[1.8420892,50.9581445]}},{"type":"Feature","properties":{"name":null,"amenity":null,"leisure":"pitch","tourism":null,"osm_type":"way","osm_id":369630843,"source":"OpenStreetMap contributors"},"geometry":{"type":"Point","coordinates":[1.8431617,50.9553104]}},{"type":"Feature","properties":{"name":null,"amenity":null,"leisure":"pitch","tourism":null,"osm_type":"way","osm_id":369637855,"source":"OpenStreetMap contributors"},"geometry":{"type":"Point","coordinates":[1.8888731,50.954732]}},{"type":"Feature","properties":{"name":null,"amenity":null,"leisure":"pitch","tourism":null,"osm_type":"way","osm_id":369637862,"source":"OpenStreetMap contributors"},"geometry":{"type":"Point","coordinates":[1.887659,50.9544746]}},{"type":"Feature","properties":{"name":"Stade Courgain Est","amenity":null,"leisure":"sports_centre","tourism":null,"osm_type":"way","osm_id":369685987,"source":"OpenStreetMap contributors"},"geometry":{"type":"Point","coordinates":[1.9075716,50.9614077]}},{"type":"Feature","properties":{"name":null,"amenity":null,"leisure":"pitch","tourism":null,"osm_type":"way","osm_id":369690098,"source":"OpenStreetMap contributors"},"geometry":{"type":"Point","coordinates":[1.8368803,50.9445259]}},{"type":"Feature","properties":{"name":null,"amenity":null,"leisure":"pitch","tourism":null,"osm_type":"way","osm_id":369690099,"source":"OpenStreetMap contributors"},"geometry":{"type":"Point","coordinates":[1.8355444,50.9445405]}},{"type":"Feature","properties":{"name":null,"amenity":null,"leisure":"pitch","tourism":null,"osm_type":"way","osm_id":369690100,"source":"OpenStreetMap contributors"},"geometry":{"type":"Point","coordinates":[1.8376936,50.9443787]}},{"type":"Feature","properties":{"name":null,"amenity":null,"leisure":"pitch","tourism":null,"osm_type":"way","osm_id":373619746,"source":"OpenStreetMap contributors"},"geometry":{"type":"Point","coordinates":[1.8749996,50.9591572]}},{"type":"Feature","properties":{"name":null,"amenity":null,"leisure":"pitch","tourism":null,"osm_type":"way","osm_id":373705769,"source":"OpenStreetMap contributors"},"geometry":{"type":"Point","coordinates":[1.8804915,50.9455852]}},{"type":"Feature","properties":{"name":null,"amenity":null,"leisure":"pitch","tourism":null,"osm_type":"way","osm_id":374361954,"source":"OpenStreetMap contributors"},"geometry":{"type":"Point","coordinates":[1.8810373,50.9446292]}},{"type":"Feature","properties":{"name":"Stade de Marck","amenity":null,"leisure":"pitch","tourism":null,"osm_type":"way","osm_id":374506745,"source":"OpenStreetMap contributors"},"geometry":{"type":"Point","coordinates":[1.9359468,50.9538568]}},{"type":"Feature","properties":{"name":null,"amenity":null,"leisure":"pitch","tourism":null,"osm_type":"way","osm_id":374506765,"source":"OpenStreetMap contributors"},"geometry":{"type":"Point","coordinates":[1.9360468,50.9541842]}},{"type":"Feature","properties":{"name":null,"amenity":null,"leisure":"pitch","tourism":null,"osm_type":"way","osm_id":376753871,"source":"OpenStreetMap contributors"},"geometry":{"type":"Point","coordinates":[1.8925889,50.9566557]}},{"type":"Feature","properties":{"name":null,"amenity":null,"leisure":"pitch","tourism":null,"osm_type":"way","osm_id":376753876,"source":"OpenStreetMap contributors"},"geometry":{"type":"Point","coordinates":[1.892688,50.9563969]}},{"type":"Feature","properties":{"name":null,"amenity":null,"leisure":"pitch","tourism":null,"osm_type":"way","osm_id":376753885,"source":"OpenStreetMap contributors"},"geometry":{"type":"Point","coordinates":[1.8932919,50.9566297]}},{"type":"Feature","properties":{"name":null,"amenity":null,"leisure":"pitch","tourism":null,"osm_type":"way","osm_id":376753887,"source":"OpenStreetMap contributors"},"geometry":{"type":"Point","coordinates":[1.8935064,50.9566238]}},{"type":"Feature","properties":{"name":null,"amenity":null,"leisure":"pitch","tourism":null,"osm_type":"way","osm_id":376753888,"source":"OpenStreetMap contributors"},"geometry":{"type":"Point","coordinates":[1.894369,50.9565517]}},{"type":"Feature","properties":{"name":null,"amenity":null,"leisure":"pitch","tourism":null,"osm_type":"way","osm_id":376753895,"source":"OpenStreetMap contributors"},"geometry":{"type":"Point","coordinates":[1.8914747,50.9560928]}},{"type":"Feature","properties":{"name":null,"amenity":null,"leisure":"pitch","tourism":null,"osm_type":"way","osm_id":389847348,"source":"OpenStreetMap contributors"},"geometry":{"type":"Point","coordinates":[1.8810024,50.9235291]}},{"type":"Feature","properties":{"name":null,"amenity":null,"leisure":"pitch","tourism":null,"osm_type":"way","osm_id":389847349,"source":"OpenStreetMap contributors"},"geometry":{"type":"Point","coordinates":[1.8813704,50.9234465]}},{"type":"Feature","properties":{"name":null,"amenity":null,"leisure":"pitch","tourism":null,"osm_type":"way","osm_id":389847350,"source":"OpenStreetMap contributors"},"geometry":{"type":"Point","coordinates":[1.8824287,50.9229966]}},{"type":"Feature","properties":{"name":null,"amenity":null,"leisure":"pitch","tourism":null,"osm_type":"way","osm_id":396273494,"source":"OpenStreetMap contributors"},"geometry":{"type":"Point","coordinates":[1.9545182,50.955313]}},{"type":"Feature","properties":{"name":null,"amenity":null,"leisure":"pitch","tourism":null,"osm_type":"way","osm_id":400520548,"source":"OpenStreetMap contributors"},"geometry":{"type":"Point","coordinates":[1.8764562,50.938463]}},{"type":"Feature","properties":{"name":null,"amenity":null,"leisure":"pitch","tourism":null,"osm_type":"way","osm_id":427484508,"source":"OpenStreetMap contributors"},"geometry":{"type":"Point","coordinates":[1.8495584,50.8821915]}},{"type":"Feature","properties":{"name":null,"amenity":null,"leisure":"pitch","tourism":null,"osm_type":"way","osm_id":427484509,"source":"OpenStreetMap contributors"},"geometry":{"type":"Point","coordinates":[1.8482075,50.8817329]}},{"type":"Feature","properties":{"name":"Terrain de la Cimenterie","amenity":null,"leisure":"sports_centre","tourism":null,"osm_type":"way","osm_id":451879590,"source":"OpenStreetMap contributors"},"geometry":{"type":"Point","coordinates":[1.7765428,50.9314225]}},{"type":"Feature","properties":{"name":null,"amenity":null,"leisure":"sports_centre","tourism":null,"osm_type":"way","osm_id":451904156,"source":"OpenStreetMap contributors"},"geometry":{"type":"Point","coordinates":[1.7680099,50.9493893]}},{"type":"Feature","properties":{"name":"Complexe Sportif Pierre Duytsche","amenity":null,"leisure":"sports_centre","tourism":null,"osm_type":"way","osm_id":451922916,"source":"OpenStreetMap contributors"},"geometry":{"type":"Point","coordinates":[1.8121186,50.9549306]}},{"type":"Feature","properties":{"name":null,"amenity":null,"leisure":"pitch","tourism":null,"osm_type":"way","osm_id":451923593,"source":"OpenStreetMap contributors"},"geometry":{"type":"Point","coordinates":[1.8179072,50.9560015]}},{"type":"Feature","properties":{"name":null,"amenity":null,"leisure":"pitch","tourism":null,"osm_type":"way","osm_id":451923596,"source":"OpenStreetMap contributors"},"geometry":{"type":"Point","coordinates":[1.8180241,50.9558626]}},{"type":"Feature","properties":{"name":null,"amenity":null,"leisure":"pitch","tourism":null,"osm_type":"way","osm_id":460569281,"source":"OpenStreetMap contributors"},"geometry":{"type":"Point","coordinates":[1.905696,50.8812733]}},{"type":"Feature","properties":{"name":null,"amenity":null,"leisure":"pitch","tourism":null,"osm_type":"way","osm_id":460569282,"source":"OpenStreetMap contributors"},"geometry":{"type":"Point","coordinates":[1.9065469,50.8819324]}},{"type":"Feature","properties":{"name":null,"amenity":null,"leisure":"pitch","tourism":null,"osm_type":"way","osm_id":472411155,"source":"OpenStreetMap contributors"},"geometry":{"type":"Point","coordinates":[1.8146264,50.9139433]}},{"type":"Feature","properties":{"name":null,"amenity":null,"leisure":"pitch","tourism":null,"osm_type":"way","osm_id":607649457,"source":"OpenStreetMap contributors"},"geometry":{"type":"Point","coordinates":[1.824276,50.9590319]}},{"type":"Feature","properties":{"name":null,"amenity":null,"leisure":"pitch","tourism":null,"osm_type":"way","osm_id":607649458,"source":"OpenStreetMap contributors"},"geometry":{"type":"Point","coordinates":[1.8245241,50.9590423]}},{"type":"Feature","properties":{"name":null,"amenity":null,"leisure":"pitch","tourism":null,"osm_type":"way","osm_id":607660360,"source":"OpenStreetMap contributors"},"geometry":{"type":"Point","coordinates":[1.8372994,50.9536578]}},{"type":"Feature","properties":{"name":null,"amenity":null,"leisure":"pitch","tourism":null,"osm_type":"way","osm_id":607660361,"source":"OpenStreetMap contributors"},"geometry":{"type":"Point","coordinates":[1.837849,50.9535776]}},{"type":"Feature","properties":{"name":null,"amenity":null,"leisure":"pitch","tourism":null,"osm_type":"way","osm_id":607660362,"source":"OpenStreetMap contributors"},"geometry":{"type":"Point","coordinates":[1.8381546,50.9536135]}},{"type":"Feature","properties":{"name":null,"amenity":null,"leisure":"pitch","tourism":null,"osm_type":"way","osm_id":607660363,"source":"OpenStreetMap contributors"},"geometry":{"type":"Point","coordinates":[1.8377616,50.953876]}},{"type":"Feature","properties":{"name":null,"amenity":null,"leisure":"pitch","tourism":null,"osm_type":"way","osm_id":607660364,"source":"OpenStreetMap contributors"},"geometry":{"type":"Point","coordinates":[1.8380614,50.9539117]}},{"type":"Feature","properties":{"name":null,"amenity":null,"leisure":"pitch","tourism":null,"osm_type":"way","osm_id":607660365,"source":"OpenStreetMap contributors"},"geometry":{"type":"Point","coordinates":[1.8376753,50.9541707]}},{"type":"Feature","properties":{"name":null,"amenity":null,"leisure":"pitch","tourism":null,"osm_type":"way","osm_id":607660366,"source":"OpenStreetMap contributors"},"geometry":{"type":"Point","coordinates":[1.8379581,50.9542029]}},{"type":"Feature","properties":{"name":null,"amenity":null,"leisure":"pitch","tourism":null,"osm_type":"way","osm_id":607660367,"source":"OpenStreetMap contributors"},"geometry":{"type":"Point","coordinates":[1.8377071,50.9545548]}},{"type":"Feature","properties":{"name":null,"amenity":null,"leisure":"pitch","tourism":null,"osm_type":"way","osm_id":607660368,"source":"OpenStreetMap contributors"},"geometry":{"type":"Point","coordinates":[1.8374232,50.9548896]}},{"type":"Feature","properties":{"name":null,"amenity":null,"leisure":"pitch","tourism":null,"osm_type":"way","osm_id":607693431,"source":"OpenStreetMap contributors"},"geometry":{"type":"Point","coordinates":[1.8914704,50.9501104]}},{"type":"Feature","properties":{"name":null,"amenity":null,"leisure":"sports_centre","tourism":null,"osm_type":"way","osm_id":653958709,"source":"OpenStreetMap contributors"},"geometry":{"type":"Point","coordinates":[1.906125,50.8816376]}},{"type":"Feature","properties":{"name":null,"amenity":null,"leisure":"pitch","tourism":null,"osm_type":"way","osm_id":700281482,"source":"OpenStreetMap contributors"},"geometry":{"type":"Point","coordinates":[1.8035998,50.932431]}},{"type":"Feature","properties":{"name":null,"amenity":null,"leisure":"pitch","tourism":null,"osm_type":"way","osm_id":760939806,"source":"OpenStreetMap contributors"},"geometry":{"type":"Point","coordinates":[1.8118013,50.9538314]}},{"type":"Feature","properties":{"name":null,"amenity":null,"leisure":"pitch","tourism":null,"osm_type":"way","osm_id":762015815,"source":"OpenStreetMap contributors"},"geometry":{"type":"Point","coordinates":[2.0177836,50.9418635]}},{"type":"Feature","properties":{"name":"Salle de la Moselle","amenity":null,"leisure":"sports_centre","tourism":null,"osm_type":"way","osm_id":850763141,"source":"OpenStreetMap contributors"},"geometry":{"type":"Point","coordinates":[1.858609,50.955236]}},{"type":"Feature","properties":{"name":null,"amenity":null,"leisure":"pitch","tourism":null,"osm_type":"way","osm_id":866111131,"source":"OpenStreetMap contributors"},"geometry":{"type":"Point","coordinates":[1.9276416,50.9063317]}},{"type":"Feature","properties":{"name":null,"amenity":null,"leisure":"pitch","tourism":null,"osm_type":"way","osm_id":866111132,"source":"OpenStreetMap contributors"},"geometry":{"type":"Point","coordinates":[1.92955,50.9066584]}},{"type":"Feature","properties":{"name":null,"amenity":null,"leisure":"pitch","tourism":null,"osm_type":"way","osm_id":866111133,"source":"OpenStreetMap contributors"},"geometry":{"type":"Point","coordinates":[1.9284541,50.9073645]}},{"type":"Feature","properties":{"name":null,"amenity":null,"leisure":"pitch","tourism":null,"osm_type":"way","osm_id":866111134,"source":"OpenStreetMap contributors"},"geometry":{"type":"Point","coordinates":[1.9280133,50.9075329]}},{"type":"Feature","properties":{"name":"Cap Padel","amenity":null,"leisure":"sports_centre","tourism":null,"osm_type":"way","osm_id":883269527,"source":"OpenStreetMap contributors"},"geometry":{"type":"Point","coordinates":[1.8500492,50.9297857]}},{"type":"Feature","properties":{"name":"Base de char à voile","amenity":null,"leisure":"sports_centre","tourism":null,"osm_type":"way","osm_id":883839533,"source":"OpenStreetMap contributors"},"geometry":{"type":"Point","coordinates":[1.962448,50.9856974]}},{"type":"Feature","properties":{"name":"Salle Nelson Mandela","amenity":null,"leisure":"sports_centre","tourism":null,"osm_type":"way","osm_id":893341049,"source":"OpenStreetMap contributors"},"geometry":{"type":"Point","coordinates":[1.8256071,50.9493801]}},{"type":"Feature","properties":{"name":null,"amenity":null,"leisure":"pitch","tourism":null,"osm_type":"way","osm_id":905075107,"source":"OpenStreetMap contributors"},"geometry":{"type":"Point","coordinates":[1.8538524,50.9248647]}},{"type":"Feature","properties":{"name":null,"amenity":null,"leisure":"pitch","tourism":null,"osm_type":"way","osm_id":923853788,"source":"OpenStreetMap contributors"},"geometry":{"type":"Point","coordinates":[1.8696167,50.957035]}},{"type":"Feature","properties":{"name":null,"amenity":null,"leisure":"pitch","tourism":null,"osm_type":"way","osm_id":923856901,"source":"OpenStreetMap contributors"},"geometry":{"type":"Point","coordinates":[1.7983081,50.9369987]}},{"type":"Feature","properties":{"name":null,"amenity":null,"leisure":"swimming_pool","tourism":null,"osm_type":"way","osm_id":945238790,"source":"OpenStreetMap contributors"},"geometry":{"type":"Point","coordinates":[1.8840682,50.9259387]}},{"type":"Feature","properties":{"name":null,"amenity":null,"leisure":"swimming_pool","tourism":null,"osm_type":"way","osm_id":945242932,"source":"OpenStreetMap contributors"},"geometry":{"type":"Point","coordinates":[1.859029,50.9247618]}},{"type":"Feature","properties":{"name":null,"amenity":null,"leisure":"swimming_pool","tourism":null,"osm_type":"way","osm_id":945242953,"source":"OpenStreetMap contributors"},"geometry":{"type":"Point","coordinates":[1.8596599,50.9247952]}},{"type":"Feature","properties":{"name":null,"amenity":null,"leisure":"swimming_pool","tourism":null,"osm_type":"way","osm_id":945249881,"source":"OpenStreetMap contributors"},"geometry":{"type":"Point","coordinates":[1.7777912,50.8885878]}},{"type":"Feature","properties":{"name":null,"amenity":null,"leisure":"pitch","tourism":null,"osm_type":"way","osm_id":959789449,"source":"OpenStreetMap contributors"},"geometry":{"type":"Point","coordinates":[1.815413,50.911873]}},{"type":"Feature","properties":{"name":"Décollage: Sangatte","amenity":null,"leisure":"pitch","tourism":null,"osm_type":"way","osm_id":978187175,"source":"OpenStreetMap contributors"},"geometry":{"type":"Point","coordinates":[1.7375418,50.9411407]}},{"type":"Feature","properties":{"name":"Calais Beach Skatepark","amenity":null,"leisure":"pitch","tourism":null,"osm_type":"way","osm_id":1001110160,"source":"OpenStreetMap contributors"},"geometry":{"type":"Point","coordinates":[1.8392324,50.9643097]}},{"type":"Feature","properties":{"name":null,"amenity":null,"leisure":"pitch","tourism":null,"osm_type":"way","osm_id":1001111262,"source":"OpenStreetMap contributors"},"geometry":{"type":"Point","coordinates":[1.8406248,50.964568]}},{"type":"Feature","properties":{"name":null,"amenity":null,"leisure":"pitch","tourism":null,"osm_type":"way","osm_id":1009902484,"source":"OpenStreetMap contributors"},"geometry":{"type":"Point","coordinates":[1.9369889,50.9551752]}},{"type":"Feature","properties":{"name":"Stade des Saules","amenity":null,"leisure":"sports_centre","tourism":null,"osm_type":"way","osm_id":1010007335,"source":"OpenStreetMap contributors"},"geometry":{"type":"Point","coordinates":[1.8843621,50.9287063]}},{"type":"Feature","properties":{"name":"Stade Stecy Suisse","amenity":null,"leisure":"sports_centre","tourism":null,"osm_type":"way","osm_id":1010247410,"source":"OpenStreetMap contributors"},"geometry":{"type":"Point","coordinates":[1.9040077,50.9489152]}},{"type":"Feature","properties":{"name":null,"amenity":null,"leisure":"pitch","tourism":null,"osm_type":"way","osm_id":1010273442,"source":"OpenStreetMap contributors"},"geometry":{"type":"Point","coordinates":[1.8916656,50.9482791]}},{"type":"Feature","properties":{"name":null,"amenity":null,"leisure":"pitch","tourism":null,"osm_type":"way","osm_id":1011095665,"source":"OpenStreetMap contributors"},"geometry":{"type":"Point","coordinates":[1.8449296,50.9405097]}},{"type":"Feature","properties":{"name":"Stade Dereuder","amenity":null,"leisure":"sports_centre","tourism":null,"osm_type":"way","osm_id":1011484168,"source":"OpenStreetMap contributors"},"geometry":{"type":"Point","coordinates":[1.8813391,50.9404637]}},{"type":"Feature","properties":{"name":null,"amenity":null,"leisure":"pitch","tourism":null,"osm_type":"way","osm_id":1011672331,"source":"OpenStreetMap contributors"},"geometry":{"type":"Point","coordinates":[1.7688261,50.9160749]}},{"type":"Feature","properties":{"name":null,"amenity":null,"leisure":"swimming_pool","tourism":null,"osm_type":"way","osm_id":1029237714,"source":"OpenStreetMap contributors"},"geometry":{"type":"Point","coordinates":[1.8928702,50.9585213]}},{"type":"Feature","properties":{"name":null,"amenity":null,"leisure":"pitch","tourism":null,"osm_type":"way","osm_id":1088184161,"source":"OpenStreetMap contributors"},"geometry":{"type":"Point","coordinates":[1.7776436,50.9132365]}},{"type":"Feature","properties":{"name":null,"amenity":null,"leisure":"pitch","tourism":null,"osm_type":"way","osm_id":1088184162,"source":"OpenStreetMap contributors"},"geometry":{"type":"Point","coordinates":[1.7755755,50.9129717]}},{"type":"Feature","properties":{"name":null,"amenity":null,"leisure":"pitch","tourism":null,"osm_type":"way","osm_id":1088184163,"source":"OpenStreetMap contributors"},"geometry":{"type":"Point","coordinates":[1.7752812,50.9133021]}},{"type":"Feature","properties":{"name":null,"amenity":null,"leisure":"pitch","tourism":null,"osm_type":"way","osm_id":1088184164,"source":"OpenStreetMap contributors"},"geometry":{"type":"Point","coordinates":[1.77727,50.9142078]}},{"type":"Feature","properties":{"name":null,"amenity":null,"leisure":"pitch","tourism":null,"osm_type":"way","osm_id":1088184165,"source":"OpenStreetMap contributors"},"geometry":{"type":"Point","coordinates":[1.7760703,50.9138269]}},{"type":"Feature","properties":{"name":null,"amenity":null,"leisure":"pitch","tourism":null,"osm_type":"way","osm_id":1088184166,"source":"OpenStreetMap contributors"},"geometry":{"type":"Point","coordinates":[1.7766336,50.9139509]}},{"type":"Feature","properties":{"name":null,"amenity":null,"leisure":"pitch","tourism":null,"osm_type":"way","osm_id":1091676594,"source":"OpenStreetMap contributors"},"geometry":{"type":"Point","coordinates":[1.7491363,50.9432145]}},{"type":"Feature","properties":{"name":null,"amenity":null,"leisure":"pitch","tourism":null,"osm_type":"way","osm_id":1096817682,"source":"OpenStreetMap contributors"},"geometry":{"type":"Point","coordinates":[1.8961987,50.9524707]}},{"type":"Feature","properties":{"name":null,"amenity":null,"leisure":"pitch","tourism":null,"osm_type":"way","osm_id":1096821867,"source":"OpenStreetMap contributors"},"geometry":{"type":"Point","coordinates":[1.8992839,50.9491769]}},{"type":"Feature","properties":{"name":null,"amenity":null,"leisure":"pitch","tourism":null,"osm_type":"way","osm_id":1104625536,"source":"OpenStreetMap contributors"},"geometry":{"type":"Point","coordinates":[1.9382368,50.9553754]}},{"type":"Feature","properties":{"name":null,"amenity":null,"leisure":"pitch","tourism":null,"osm_type":"way","osm_id":1104625537,"source":"OpenStreetMap contributors"},"geometry":{"type":"Point","coordinates":[1.9355875,50.9551667]}},{"type":"Feature","properties":{"name":null,"amenity":null,"leisure":"pitch","tourism":null,"osm_type":"way","osm_id":1104625538,"source":"OpenStreetMap contributors"},"geometry":{"type":"Point","coordinates":[1.9360405,50.9550794]}},{"type":"Feature","properties":{"name":null,"amenity":null,"leisure":"pitch","tourism":null,"osm_type":"way","osm_id":1151425546,"source":"OpenStreetMap contributors"},"geometry":{"type":"Point","coordinates":[1.948104,50.9739339]}},{"type":"Feature","properties":{"name":null,"amenity":null,"leisure":"pitch","tourism":null,"osm_type":"way","osm_id":1159448854,"source":"OpenStreetMap contributors"},"geometry":{"type":"Point","coordinates":[1.9849594,50.9285479]}},{"type":"Feature","properties":{"name":null,"amenity":null,"leisure":"pitch","tourism":null,"osm_type":"way","osm_id":1190642207,"source":"OpenStreetMap contributors"},"geometry":{"type":"Point","coordinates":[2.0073261,50.9549904]}},{"type":"Feature","properties":{"name":null,"amenity":null,"leisure":"pitch","tourism":null,"osm_type":"way","osm_id":1190642208,"source":"OpenStreetMap contributors"},"geometry":{"type":"Point","coordinates":[2.0077263,50.9558898]}},{"type":"Feature","properties":{"name":null,"amenity":null,"leisure":"swimming_pool","tourism":null,"osm_type":"way","osm_id":1232881163,"source":"OpenStreetMap contributors"},"geometry":{"type":"Point","coordinates":[1.8324334,50.8955946]}},{"type":"Feature","properties":{"name":null,"amenity":null,"leisure":"swimming_pool","tourism":null,"osm_type":"way","osm_id":1232881164,"source":"OpenStreetMap contributors"},"geometry":{"type":"Point","coordinates":[1.831015,50.8953185]}},{"type":"Feature","properties":{"name":null,"amenity":null,"leisure":"swimming_pool","tourism":null,"osm_type":"way","osm_id":1232881165,"source":"OpenStreetMap contributors"},"geometry":{"type":"Point","coordinates":[1.8305878,50.8948245]}},{"type":"Feature","properties":{"name":null,"amenity":null,"leisure":"swimming_pool","tourism":null,"osm_type":"way","osm_id":1232881173,"source":"OpenStreetMap contributors"},"geometry":{"type":"Point","coordinates":[1.8316137,50.8946628]}},{"type":"Feature","properties":{"name":null,"amenity":null,"leisure":"swimming_pool","tourism":null,"osm_type":"way","osm_id":1270848089,"source":"OpenStreetMap contributors"},"geometry":{"type":"Point","coordinates":[1.9276791,50.9665548]}},{"type":"Feature","properties":{"name":null,"amenity":null,"leisure":"sports_centre","tourism":null,"osm_type":"way","osm_id":1288343267,"source":"OpenStreetMap contributors"},"geometry":{"type":"Point","coordinates":[1.9283377,50.9066603]}},{"type":"Feature","properties":{"name":null,"amenity":null,"leisure":"swimming_pool","tourism":null,"osm_type":"way","osm_id":1304839562,"source":"OpenStreetMap contributors"},"geometry":{"type":"Point","coordinates":[1.9302863,50.9506676]}},{"type":"Feature","properties":{"name":null,"amenity":null,"leisure":"swimming_pool","tourism":null,"osm_type":"way","osm_id":1304839563,"source":"OpenStreetMap contributors"},"geometry":{"type":"Point","coordinates":[1.9312815,50.9523518]}},{"type":"Feature","properties":{"name":null,"amenity":null,"leisure":"pitch","tourism":null,"osm_type":"way","osm_id":1334580672,"source":"OpenStreetMap contributors"},"geometry":{"type":"Point","coordinates":[1.8680682,50.9576986]}},{"type":"Feature","properties":{"name":null,"amenity":null,"leisure":"pitch","tourism":null,"osm_type":"way","osm_id":1351206936,"source":"OpenStreetMap contributors"},"geometry":{"type":"Point","coordinates":[1.8153307,50.9120394]}},{"type":"Feature","properties":{"name":null,"amenity":null,"leisure":"pitch","tourism":null,"osm_type":"way","osm_id":1351206943,"source":"OpenStreetMap contributors"},"geometry":{"type":"Point","coordinates":[1.8121672,50.9072324]}},{"type":"Feature","properties":{"name":null,"amenity":null,"leisure":"sports_centre","tourism":null,"osm_type":"way","osm_id":1392094446,"source":"OpenStreetMap contributors"},"geometry":{"type":"Point","coordinates":[1.9317581,50.9563043]}},{"type":"Feature","properties":{"name":null,"amenity":null,"leisure":"sports_centre","tourism":null,"osm_type":"way","osm_id":1392094447,"source":"OpenStreetMap contributors"},"geometry":{"type":"Point","coordinates":[1.9350591,50.9547178]}},{"type":"Feature","properties":{"name":null,"amenity":null,"leisure":"pitch","tourism":null,"osm_type":"way","osm_id":1431739604,"source":"OpenStreetMap contributors"},"geometry":{"type":"Point","coordinates":[1.8147356,50.9578506]}},{"type":"Feature","properties":{"name":null,"amenity":null,"leisure":"pitch","tourism":null,"osm_type":"way","osm_id":1431820402,"source":"OpenStreetMap contributors"},"geometry":{"type":"Point","coordinates":[1.8847337,50.9300108]}},{"type":"Feature","properties":{"name":null,"amenity":null,"leisure":"pitch","tourism":null,"osm_type":"way","osm_id":1432480296,"source":"OpenStreetMap contributors"},"geometry":{"type":"Point","coordinates":[1.8850111,50.9499351]}},{"type":"Feature","properties":{"name":"Stade Julien Denis","amenity":null,"leisure":"sports_centre","tourism":null,"osm_type":"way","osm_id":1432491087,"source":"OpenStreetMap contributors"},"geometry":{"type":"Point","coordinates":[1.8816317,50.9468473]}},{"type":"Feature","properties":{"name":null,"amenity":null,"leisure":"swimming_pool","tourism":null,"osm_type":"way","osm_id":1436620454,"source":"OpenStreetMap contributors"},"geometry":{"type":"Point","coordinates":[1.9371433,50.9482511]}},{"type":"Feature","properties":{"name":null,"amenity":null,"leisure":"pitch","tourism":null,"osm_type":"way","osm_id":1475630692,"source":"OpenStreetMap contributors"},"geometry":{"type":"Point","coordinates":[1.8877193,50.9525776]}},{"type":"Feature","properties":{"name":null,"amenity":null,"leisure":"pitch","tourism":null,"osm_type":"way","osm_id":1475630695,"source":"OpenStreetMap contributors"},"geometry":{"type":"Point","coordinates":[1.8876679,50.9527159]}},{"type":"Feature","properties":{"name":null,"amenity":null,"leisure":"pitch","tourism":null,"osm_type":"way","osm_id":1477772598,"source":"OpenStreetMap contributors"},"geometry":{"type":"Point","coordinates":[1.9053053,50.9515094]}},{"type":"Feature","properties":{"name":null,"amenity":null,"leisure":"pitch","tourism":null,"osm_type":"way","osm_id":1492552012,"source":"OpenStreetMap contributors"},"geometry":{"type":"Point","coordinates":[1.8328441,50.9447969]}},{"type":"Feature","properties":{"name":null,"amenity":null,"leisure":"pitch","tourism":null,"osm_type":"way","osm_id":1492552015,"source":"OpenStreetMap contributors"},"geometry":{"type":"Point","coordinates":[1.8338398,50.9443086]}},{"type":"Feature","properties":{"name":null,"amenity":null,"leisure":"pitch","tourism":null,"osm_type":"way","osm_id":1493867938,"source":"OpenStreetMap contributors"},"geometry":{"type":"Point","coordinates":[1.8665133,50.9564089]}},{"type":"Feature","properties":{"name":"Pump Track","amenity":null,"leisure":"pitch","tourism":null,"osm_type":"way","osm_id":1521814885,"source":"OpenStreetMap contributors"},"geometry":{"type":"Point","coordinates":[1.9273801,50.9080622]}},{"type":"Feature","properties":{"name":null,"amenity":null,"leisure":"pitch","tourism":null,"osm_type":"way","osm_id":1521814886,"source":"OpenStreetMap contributors"},"geometry":{"type":"Point","coordinates":[1.9277176,50.9080724]}},{"type":"Feature","properties":{"name":null,"amenity":null,"leisure":"pitch","tourism":null,"osm_type":"way","osm_id":1521814892,"source":"OpenStreetMap contributors"},"geometry":{"type":"Point","coordinates":[1.926659,50.907398]}},{"type":"Feature","properties":{"name":null,"amenity":null,"leisure":"pitch","tourism":null,"osm_type":"way","osm_id":1527887909,"source":"OpenStreetMap contributors"},"geometry":{"type":"Point","coordinates":[1.8846307,50.9298013]}},{"type":"Feature","properties":{"name":null,"amenity":null,"leisure":"pitch","tourism":null,"osm_type":"way","osm_id":1549918122,"source":"OpenStreetMap contributors"},"geometry":{"type":"Point","coordinates":[1.8303849,50.9590126]}},{"type":"Feature","properties":{"name":"Centre Sportif","amenity":null,"leisure":"sports_centre","tourism":null,"osm_type":"relation","osm_id":5831309,"source":"OpenStreetMap contributors"},"geometry":{"type":"Point","coordinates":[1.8818754,50.9235834]}}]}
