{
"type": "FeatureCollection",
"name": "paris-exclusion-mask",
"crs": { "type": "name", "properties": { "name": "urn:ogc:def:crs:OGC:1.3:CRS84" } },
"features": [
{ "type": "Feature", "properties": { "name": "Bois de Boulogne, Paris, Nanterre, Hauts-de-Seine, Île-de-France, France métropolitaine, 92200, France", "osm_id": 16731685, "source": "OpenStreetMap — Nominatim, ODbL 1.0" }, "geometry": { "type": "Polygon", "coordinates": [ [ [ 2.22044086063843, 48.854661175232103 ], [ 2.220451333307675, 48.854959975630386 ], [ 2.220486529884225, 48.85527569176778 ], [ 2.220525226482929, 48.855420919370324 ], [ 2.220535151802637, 48.855520262661713 ], [ 2.220559208414376, 48.855690477245332 ], [ 2.220577028890428, 48.855787871953225 ], [ 2.220591184900729, 48.855864870814912 ], [ 2.220602374409005, 48.855925799581726 ], [ 2.220637624615497, 48.856118123245047 ], [ 2.220674906409577, 48.856321424651554 ], [ 2.220708814985564, 48.856474631091359 ], [ 2.22078558907757, 48.856770433966773 ], [ 2.220910431558858, 48.857126046409071 ], [ 2.221002993505794, 48.857334013773858 ], [ 2.2211161627551, 48.857603205081013 ], [ 2.221139757285166, 48.857733017008982 ], [ 2.221242624987434, 48.858038319876009 ], [ 2.221390903650159, 48.858335379223853 ], [ 2.221419000151618, 48.858383480219906 ], [ 2.221505936790654, 48.858512321897223 ], [ 2.221506863657525, 48.85851424294988 ], [ 2.221522005472427, 48.858545428119193 ], [ 2.221563456196342, 48.858631511457574 ], [ 2.221580229748796, 48.858665669721923 ], [ 2.221684667908497, 48.858874284821198 ], [ 2.221701423237206, 48.858907895973225 ], [ 2.221703450851418, 48.858911954077513 ], [ 2.221758968213001, 48.859022814173045 ], [ 2.221781203411661, 48.859067570303708 ], [ 2.221784988176096, 48.859075155936523 ], [ 2.22193637070878, 48.859377272193271 ], [ 2.222133401992314, 48.859770303491096 ], [ 2.222293569647841, 48.860089993558383 ], [ 2.222403898414696, 48.860310090530852 ], [ 2.222424446318049, 48.86035112841806 ], [ 2.222433522172345, 48.860370172463917 ], [ 2.222435222550597, 48.860373733019763 ], [ 2.222526607127059, 48.860564694469026 ], [ 2.22260625677119, 48.860733338139418 ], [ 2.222690942630296, 48.860912541210951 ], [ 2.222705376330161, 48.860942554995923 ], [ 2.222898182202176, 48.861336628119155 ], [ 2.222955709754156, 48.861454296318762 ], [ 2.222957552921801, 48.861458058279354 ], [ 2.223120127107991, 48.861789164155155 ], [ 2.223122558683772, 48.861794102480708 ], [ 2.223331628027746, 48.862217512191947 ], [ 2.223607486860841, 48.862776424310162 ], [ 2.223610258533658, 48.862782022085248 ], [ 2.223624246094549, 48.862810182600896 ], [ 2.223712285131938, 48.862988651866999 ], [ 2.223809279835522, 48.86324295700588 ], [ 2.223867560626369, 48.863395604885703 ], [ 2.224064710323872, 48.86412371569125 ], [ 2.224124785284799, 48.864345596982659 ], [ 2.224178871713032, 48.864517510847932 ], [ 2.224188313631629, 48.86454381247615 ], [ 2.224327181117526, 48.864930417609671 ], [ 2.224416021614976, 48.865143964672981 ], [ 2.224731069198628, 48.865808676095902 ], [ 2.224835262916844, 48.866005395279764 ], [ 2.225193718551332, 48.866616407978682 ], [ 2.225437193650472, 48.866966213459754 ], [ 2.226208938909725, 48.867916939302809 ], [ 2.226290169962352, 48.868012939499536 ], [ 2.226321449928531, 48.868048434031671 ], [ 2.226549279479004, 48.86830657699425 ], [ 2.227187284661565, 48.869029533361264 ], [ 2.227199073376616, 48.869042816728658 ], [ 2.227435433035326, 48.86930765462958 ], [ 2.227569748221849, 48.86946113151356 ], [ 2.22783610577275, 48.869732311722927 ], [ 2.22814320759204, 48.869984047057443 ], [ 2.229610892616792, 48.871068088635099 ], [ 2.22997708337247, 48.871310608557025 ], [ 2.230900891238319, 48.871859232033273 ], [ 2.231275419719744, 48.872059987660776 ], [ 2.232277442415713, 48.872543710136384 ], [ 2.232547805295881, 48.872665063801286 ], [ 2.233015519666357, 48.872859873285378 ], [ 2.23318434194574, 48.872927012525807 ], [ 2.233363348221983, 48.872994915915037 ], [ 2.233462329028964, 48.87303143702843 ], [ 2.23358303354146, 48.873074739218687 ], [ 2.234169582426856, 48.87325238210034 ], [ 2.234384492819383, 48.873306184996558 ], [ 2.234577947173041, 48.873351500166251 ], [ 2.234754256178495, 48.873390002270718 ], [ 2.23481317295981, 48.873401557923643 ], [ 2.234922445109618, 48.873434221307171 ], [ 2.235404668059806, 48.873559027996606 ], [ 2.235444858598984, 48.87356929189643 ], [ 2.235713223054312, 48.873636908960314 ], [ 2.236093646070564, 48.873737700702527 ], [ 2.236219646492537, 48.873769191418774 ], [ 2.237141081309137, 48.874042206204216 ], [ 2.23770396031223, 48.874248287421054 ], [ 2.237782783975658, 48.874277909891717 ], [ 2.238006805317283, 48.874388377427728 ], [ 2.238565571604897, 48.874715935841394 ], [ 2.238789358456146, 48.874860644633735 ], [ 2.23894827421741, 48.874976223847014 ], [ 2.239054573300868, 48.875053426835571 ], [ 2.239083397922415, 48.875074174426722 ], [ 2.23980872099295, 48.87559158195608 ], [ 2.240332167856068, 48.87614045202082 ], [ 2.240418515689008, 48.876227750923825 ], [ 2.241436174821145, 48.877220282939504 ], [ 2.241736500342232, 48.877482552778233 ], [ 2.241829120479672, 48.877547951796046 ], [ 2.241830334680544, 48.877549610398006 ], [ 2.242057113673433, 48.877823758326713 ], [ 2.242323967506377, 48.878081733195948 ], [ 2.242628269434337, 48.878320995116937 ], [ 2.242967023892668, 48.878539188406982 ], [ 2.243336895981315, 48.878734164790352 ], [ 2.243734244296117, 48.878904004557349 ], [ 2.244155156784029, 48.879047035473185 ], [ 2.24459548926896, 48.879161849249734 ], [ 2.245050906268449, 48.879247315417977 ], [ 2.245516923698585, 48.879302592464107 ], [ 2.245988953045834, 48.87932713611918 ], [ 2.246462346569807, 48.87932070472089 ], [ 2.246932443090749, 48.879283361594275 ], [ 2.247394613909712, 48.879215474427802 ], [ 2.247844308408061, 48.879117711651247 ], [ 2.248566273487085, 48.878934094556847 ], [ 2.24871651412426, 48.878897062393477 ], [ 2.250002403139277, 48.878579436721672 ], [ 2.250063679086088, 48.878574003727131 ], [ 2.250485302913744, 48.878510565588506 ], [ 2.250990630100739, 48.878418460476951 ], [ 2.251461092248251, 48.878315077198039 ], [ 2.251507412227237, 48.878303101234451 ], [ 2.251608334768902, 48.878277024445282 ], [ 2.252023683507552, 48.878154331104405 ], [ 2.252265884010028, 48.87806360914567 ], [ 2.253769960524783, 48.881033828614292 ], [ 2.253947500585094, 48.88133273234731 ], [ 2.254170281720393, 48.881618153988413 ], [ 2.25443598706876, 48.881887124317998 ], [ 2.254741853104372, 48.882136845215818 ], [ 2.254837752153062, 48.882207447928373 ], [ 2.255163432836945, 48.8824249698174 ], [ 2.255519575149126, 48.882620627842506 ], [ 2.255572476251445, 48.882646929051766 ], [ 2.256147023943128, 48.882892060275452 ], [ 2.256655342739236, 48.883076269571021 ], [ 2.257081046736414, 48.883212868062131 ], [ 2.257525178450685, 48.883320977128847 ], [ 2.257983367054561, 48.883399532822828 ], [ 2.258451103307726, 48.883447762039417 ], [ 2.258923783956119, 48.883465190129854 ], [ 2.259396757058692, 48.883451645574908 ], [ 2.259865367794618, 48.88340726167386 ], [ 2.262226683923231, 48.883104085826332 ], [ 2.268783288558687, 48.882290936260148 ], [ 2.271890809047001, 48.881903296155478 ], [ 2.275219742129289, 48.881489353959807 ], [ 2.275327671719194, 48.881475079552239 ], [ 2.278633058284507, 48.881011653452624 ], [ 2.278713313737998, 48.88099992276576 ], [ 2.280119292127627, 48.880786010764488 ], [ 2.28052115807777, 48.880712532789133 ], [ 2.280542159157438, 48.880708032542721 ], [ 2.281144981347873, 48.880548182803459 ], [ 2.281163482119121, 48.880542282497579 ], [ 2.281550530701088, 48.880403968861785 ], [ 2.281916606771136, 48.880242719999885 ], [ 2.28225859521432, 48.880059908137142 ], [ 2.282276995387138, 48.88004910767259 ], [ 2.282604323156267, 48.879837543075176 ], [ 2.282625123016257, 48.879822742495861 ], [ 2.283002651980734, 48.879517896867881 ], [ 2.283018751446104, 48.87950309637111 ], [ 2.283215680006419, 48.87930697729697 ], [ 2.283389850751352, 48.879101705391619 ], [ 2.283401949811831, 48.879086104982498 ], [ 2.283558601055454, 48.87886303919138 ], [ 2.283688379162351, 48.878632589958727 ], [ 2.2836960779576, 48.878617089680858 ], [ 2.283856049674664, 48.878200979701795 ], [ 2.283859748506794, 48.878187579563566 ], [ 2.283911690574211, 48.877947055319986 ], [ 2.283914289077421, 48.877930455221787 ], [ 2.283938763936142, 48.877663324019274 ], [ 2.283940159210598, 48.877611723966204 ], [ 2.283922211286987, 48.877277167323506 ], [ 2.283850495476348, 48.876945760082855 ], [ 2.283846094206532, 48.876931060246804 ], [ 2.283720525904436, 48.876604650138766 ], [ 2.28354280937201, 48.87628895647466 ], [ 2.283526707699469, 48.876264457035695 ], [ 2.283420743213202, 48.876126370800904 ], [ 2.28335359156376, 48.875999425153864 ], [ 2.283139955448784, 48.875700649318624 ], [ 2.283137755293838, 48.875697949392226 ], [ 2.28286691103782, 48.875405069065636 ], [ 2.282780307728464, 48.87532197177606 ], [ 2.282395227419675, 48.874999693592471 ], [ 2.282338648192102, 48.874958216895919 ], [ 2.282208163424515, 48.874862245123531 ], [ 2.281873051853929, 48.87463922693825 ], [ 2.281505923580863, 48.874439341937084 ], [ 2.281403046249166, 48.874393881951988 ], [ 2.281215749835521, 48.874190680803345 ], [ 2.280910136863338, 48.873926539051105 ], [ 2.280564015928486, 48.87368512007761 ], [ 2.280475141431059, 48.873629346400563 ], [ 2.280403041736698, 48.873584148286994 ], [ 2.280047032019116, 48.873382009818194 ], [ 2.27985527107443, 48.873293181092023 ], [ 2.278623166467099, 48.871994783505386 ], [ 2.278625942386487, 48.871924749210578 ], [ 2.278622637938759, 48.871876049335867 ], [ 2.278603533863984, 48.871702303923712 ], [ 2.278595329000778, 48.871648404233696 ], [ 2.278504167158239, 48.87127589783428 ], [ 2.278488063124363, 48.8712283984311 ], [ 2.278409599782008, 48.871028112521294 ], [ 2.278392096626129, 48.870988813159116 ], [ 2.278302034628518, 48.870807178792973 ], [ 2.278285232328217, 48.870776479393193 ], [ 2.278081557505111, 48.870464214226523 ], [ 2.27803736351778, 48.870198966673065 ], [ 2.277939407169862, 48.869893741483153 ], [ 2.277796128573395, 48.869596412833168 ], [ 2.277608936112084, 48.869309901797799 ], [ 2.277379669510524, 48.869037023130247 ], [ 2.27711058173651, 48.868780457615067 ], [ 2.276804316848428, 48.868542725738429 ], [ 2.276543161872034, 48.868359267691851 ], [ 2.276421715121594, 48.868255810106184 ], [ 2.276278382229469, 48.868097088724248 ], [ 2.274574391079977, 48.866100200653577 ], [ 2.274475061741414, 48.865989174412086 ], [ 2.274381064717666, 48.865888859588658 ], [ 2.274256363645536, 48.8657393549692 ], [ 2.274188186605441, 48.865657618507576 ], [ 2.27363434441085, 48.864916240861042 ], [ 2.273353694700167, 48.864533632151549 ], [ 2.27321627837047, 48.864345923662214 ], [ 2.273211921315152, 48.864339987856745 ], [ 2.272662674329357, 48.863593706624528 ], [ 2.272470321263605, 48.863358346663375 ], [ 2.272387938898478, 48.863267053139339 ], [ 2.272392167162975, 48.863222875129445 ], [ 2.272376961501147, 48.862920324959411 ], [ 2.27231777613476, 48.862620137621377 ], [ 2.272300270516844, 48.862555738275823 ], [ 2.272159252872398, 48.862175114293869 ], [ 2.27213384862538, 48.86212131521517 ], [ 2.271965137698372, 48.861819343926918 ], [ 2.271750576070227, 48.861530317434848 ], [ 2.271700872795149, 48.8614712190858 ], [ 2.271447390422024, 48.861202600720276 ], [ 2.271154315664531, 48.860952131251686 ], [ 2.27105641425673, 48.860876634077599 ], [ 2.270756593819795, 48.860665843120834 ], [ 2.270428730529018, 48.860474089526448 ], [ 2.270365592924196, 48.860440448508236 ], [ 2.270312409576196, 48.860320521865468 ], [ 2.270213695157876, 48.860131525410686 ], [ 2.270137681369315, 48.859996151243251 ], [ 2.269998464768711, 48.85976465615888 ], [ 2.269964629471081, 48.859709899113504 ], [ 2.269416088957787, 48.858845472616032 ], [ 2.269204565135329, 48.858486912108624 ], [ 2.26910545290764, 48.858331369746587 ], [ 2.268031544774942, 48.856764861228541 ], [ 2.266521769487141, 48.854309329810043 ], [ 2.266488581577972, 48.854256721463429 ], [ 2.262968779286473, 48.848815934208126 ], [ 2.262621642087593, 48.84806880382898 ], [ 2.26245365043023, 48.847764175994797 ], [ 2.262239077820557, 48.847472566823271 ], [ 2.261980200804981, 48.847197069172303 ], [ 2.261679765702114, 48.846940604972922 ], [ 2.261654291430397, 48.846922957576936 ], [ 2.261606007829803, 48.846833702910907 ], [ 2.26140345310851, 48.846551359995011 ], [ 2.261159493659742, 48.846283658522204 ], [ 2.26087653283877, 48.846033235075076 ], [ 2.260557358003791, 48.845802556030634 ], [ 2.260205113051493, 48.845593893276735 ], [ 2.259823267447186, 48.845409301844832 ], [ 2.259415582054688, 48.845250599678536 ], [ 2.25898607210241, 48.845119349737033 ], [ 2.258538967649986, 48.845016844609376 ], [ 2.25807867194425, 48.844944093790524 ], [ 2.257609718073897, 48.844901813744457 ], [ 2.257136724348745, 48.844890420851883 ], [ 2.256273176493297, 48.844897920420124 ], [ 2.255890210446628, 48.844911423050682 ], [ 2.255510126125224, 48.844945191067154 ], [ 2.255176450112464, 48.844983907101444 ], [ 2.255175428173813, 48.84498399129955 ], [ 2.25470675070849, 48.845038396757126 ], [ 2.254267532953252, 48.84511985037711 ], [ 2.254104968427575, 48.845082899933978 ], [ 2.253644373791477, 48.845010958086121 ], [ 2.253175243844199, 48.844969502957355 ], [ 2.252983255319057, 48.844958903565484 ], [ 2.252887280800395, 48.844954247918359 ], [ 2.252750988982938, 48.844948548245846 ], [ 2.252493725246496, 48.84494238425777 ], [ 2.249192124636625, 48.84492208542644 ], [ 2.24871667931144, 48.84493482347019 ], [ 2.248245523175542, 48.844978767449831 ], [ 2.247783345926273, 48.845053479962679 ], [ 2.247334747936366, 48.845158217344668 ], [ 2.246904194485783, 48.845291937068858 ], [ 2.24677188545257, 48.845344239235857 ], [ 2.243734933015619, 48.845412350314767 ], [ 2.241844895160586, 48.845346966436672 ], [ 2.241385559747233, 48.845345691885136 ], [ 2.240928168783383, 48.845373587666643 ], [ 2.240476964659013, 48.84543039504063 ], [ 2.240036132410709, 48.845515587102838 ], [ 2.239609760924173, 48.845628373670031 ], [ 2.239201805026227, 48.845767708605543 ], [ 2.23881604881707, 48.845932299518033 ], [ 2.238456070582203, 48.846120619743367 ], [ 2.2381252096089, 48.846330922499192 ], [ 2.237826535214669, 48.846561257080801 ], [ 2.236959450734588, 48.84729908479477 ], [ 2.236599791041534, 48.847378504673252 ], [ 2.236440846833808, 48.847413601510937 ], [ 2.236134724263917, 48.847481264185113 ], [ 2.235945657957807, 48.847522933522619 ], [ 2.232893590989738, 48.848196889967689 ], [ 2.225975880696814, 48.849724576125858 ], [ 2.22574435009023, 48.849775689274232 ], [ 2.224847398748292, 48.849974314132844 ], [ 2.22405014468384, 48.850149844692922 ], [ 2.22362578313157, 48.850258379726895 ], [ 2.223219026647858, 48.850393112334324 ], [ 2.222833578424323, 48.850552815923436 ], [ 2.222472947756434, 48.850736036557493 ], [ 2.222140418102147, 48.850941106185601 ], [ 2.221839017191987, 48.851166157822647 ], [ 2.221571489462521, 48.851409142540078 ], [ 2.221340271064098, 48.851667848113642 ], [ 2.221265918399585, 48.851772769921475 ], [ 2.221263600695904, 48.851775292932217 ], [ 2.221068970638184, 48.852040230723851 ], [ 2.220912702333301, 48.85231601046479 ], [ 2.220824088120091, 48.852497907259774 ], [ 2.220709694857697, 48.852775737700782 ], [ 2.220634247059031, 48.853059303434527 ], [ 2.220555494783949, 48.853462896905526 ], [ 2.220530283229735, 48.853592295955679 ], [ 2.220498797217937, 48.853817752643415 ], [ 2.220497994954799, 48.85382720915181 ], [ 2.220465046224411, 48.854205473573451 ], [ 2.220447427778858, 48.854407972905534 ], [ 2.22044086063843, 48.854661175232103 ] ] ] } },
{ "type": "Feature", "properties": { "name": "Bois de Vincennes, Paris, Nogent-sur-Marne, Val-de-Marne, Île-de-France, France métropolitaine, 94410, France", "osm_id": 18047835, "source": "OpenStreetMap — Nominatim, ODbL 1.0" }, "geometry": { "type": "Polygon", "coordinates": [ [ [ 2.395100424306515, 48.831340799729134 ], [ 2.395114420726936, 48.831382900248812 ], [ 2.395160120472208, 48.831508077597732 ], [ 2.39517281784542, 48.831539978064541 ], [ 2.395294199406375, 48.831798988209378 ], [ 2.395448893143775, 48.832050141312344 ], [ 2.395635751767695, 48.83229157392978 ], [ 2.395658150357504, 48.832317674670499 ], [ 2.395909591093417, 48.832579673137211 ], [ 2.396198870665905, 48.832824062246296 ], [ 2.396523180600376, 48.833048468923621 ], [ 2.396561780766266, 48.833072669933912 ], [ 2.396884986324244, 48.833257824067125 ], [ 2.39723203858345, 48.833423100492546 ], [ 2.397600141793133, 48.833567167699591 ], [ 2.397658043999022, 48.833587568735744 ], [ 2.398131013802464, 48.833732856604669 ], [ 2.398625197441101, 48.833843161967174 ], [ 2.399134678418202, 48.833917164203093 ], [ 2.399856087250499, 48.833994915576575 ], [ 2.40021556025332, 48.834265108002469 ], [ 2.400402570063832, 48.834501591973428 ], [ 2.400673324605818, 48.834771955775373 ], [ 2.400984760296951, 48.835022505690795 ], [ 2.401333575450257, 48.835250585076523 ], [ 2.401716071886072, 48.835453775518381 ], [ 2.402128194140853, 48.835629922483911 ], [ 2.402565572472074, 48.835777158177144 ], [ 2.403249327402059, 48.835978758690075 ], [ 2.404030998395394, 48.83638879784548 ], [ 2.404209894458314, 48.836562910188341 ], [ 2.404501057547956, 48.836794959610074 ], [ 2.404824500250042, 48.837007567093821 ], [ 2.40517725872958, 48.837198784196772 ], [ 2.405556100376065, 48.837366858488934 ], [ 2.405957553430536, 48.837510249620117 ], [ 2.406088658917136, 48.837551851778734 ], [ 2.406452254820557, 48.837655190996337 ], [ 2.406628263298615, 48.837699593384158 ], [ 2.407074532725509, 48.837795841251079 ], [ 2.407532978604795, 48.837862651384725 ], [ 2.407999156034272, 48.837899376021369 ], [ 2.408468545109134, 48.837905659092911 ], [ 2.408936594768618, 48.837881439681034 ], [ 2.409398766945554, 48.837826952608076 ], [ 2.409850580589603, 48.837742726159121 ], [ 2.41028765513618, 48.837629576957447 ], [ 2.410705752998564, 48.837488602042875 ], [ 2.412191508721163, 48.836925084978169 ], [ 2.412348288740132, 48.836897503040696 ], [ 2.412802943234241, 48.836826941038296 ], [ 2.413068039560577, 48.83678044748833 ], [ 2.41325972334178, 48.83674290087945 ], [ 2.413533640866126, 48.836710144397919 ], [ 2.413846878342009, 48.836705429677764 ], [ 2.414231740856525, 48.836707877895904 ], [ 2.414825111714352, 48.836762576370717 ], [ 2.415076707038386, 48.836811048139175 ], [ 2.416057578842636, 48.837094632799371 ], [ 2.416679222472079, 48.837304914487028 ], [ 2.416657016918708, 48.837411468471039 ], [ 2.416583300568267, 48.837722465130717 ], [ 2.416489834132158, 48.838075308526385 ], [ 2.416393394486138, 48.838396678141834 ], [ 2.416331801506119, 48.838572998906386 ], [ 2.416217593679225, 48.838852179843961 ], [ 2.41609104799654, 48.839133370790307 ], [ 2.416063839007883, 48.839158574138395 ], [ 2.415938734358344, 48.839277670231453 ], [ 2.415603954979038, 48.839648267516779 ], [ 2.415492546179203, 48.839793363740448 ], [ 2.415355075218293, 48.83998870171402 ], [ 2.415285067675901, 48.840097799264377 ], [ 2.415119490662522, 48.840397200218383 ], [ 2.415018933822289, 48.840658548915165 ], [ 2.41499414491594, 48.840716803082756 ], [ 2.414898422435182, 48.840986971501621 ], [ 2.414839114758701, 48.841261654299878 ], [ 2.414729648116796, 48.842000550160968 ], [ 2.41470835681564, 48.842232073964155 ], [ 2.414712953329729, 48.842464004006608 ], [ 2.414729623707192, 48.842684178627032 ], [ 2.41473430852061, 48.842746152791634 ], [ 2.414775619051129, 48.843031223742102 ], [ 2.414856012181144, 48.843312636626599 ], [ 2.414974823081993, 48.843588062051907 ], [ 2.415131068879619, 48.843855220151227 ], [ 2.415305710167663, 48.844088222486675 ], [ 2.415411535553664, 48.844338172629016 ], [ 2.415579486983132, 48.84462402578113 ], [ 2.415788778832689, 48.844897737857707 ], [ 2.416037425907463, 48.845156711800165 ], [ 2.416276117472234, 48.845380419216063 ], [ 2.416602528754274, 48.845653028807945 ], [ 2.416972479233023, 48.845900231339648 ], [ 2.417381460973292, 48.846119014215986 ], [ 2.418939797399717, 48.84686244890414 ], [ 2.419345695225414, 48.847036106759148 ], [ 2.419776160596381, 48.847181733940772 ], [ 2.420226764726875, 48.847297832131176 ], [ 2.420692871524603, 48.847383206819615 ], [ 2.421169685309995, 48.84743697959837 ], [ 2.421276591630496, 48.847445380078604 ], [ 2.421670291287491, 48.847465450495484 ], [ 2.422065157260525, 48.847463956022665 ], [ 2.422458482230918, 48.847440906906606 ], [ 2.42254658741706, 48.847433306472716 ], [ 2.423051467516338, 48.847371349193914 ], [ 2.423543325558884, 48.847273921929016 ], [ 2.424016458008525, 48.847142154443176 ], [ 2.424465378582131, 48.846977574700695 ], [ 2.424884881892645, 48.846782091138493 ], [ 2.425017984263647, 48.846712688003201 ], [ 2.425353174350372, 48.846520526442859 ], [ 2.425475174831693, 48.846443723243198 ], [ 2.425827126807384, 48.846196942026992 ], [ 2.425943824979045, 48.846105738639082 ], [ 2.426246624834733, 48.845842149799083 ], [ 2.426422317851956, 48.845671244274449 ], [ 2.426635275203792, 48.845443872146184 ], [ 2.426812563794734, 48.845235266270414 ], [ 2.426950581463226, 48.845060223881646 ], [ 2.42719176050387, 48.844729415622972 ], [ 2.42723476303565, 48.844666425283307 ], [ 2.432566788683128, 48.844250921581057 ], [ 2.432891234786402, 48.844297685603514 ], [ 2.433075736401269, 48.844312003635856 ], [ 2.433171622986008, 48.844786843602726 ], [ 2.433175458643008, 48.844805415554937 ], [ 2.433217241055762, 48.845003317127777 ], [ 2.433304005328862, 48.845305439544433 ], [ 2.43343502215474, 48.845600532305113 ], [ 2.433609041811708, 48.845885778970505 ], [ 2.433824404071191, 48.846158457031656 ], [ 2.434079054020562, 48.846415963899737 ], [ 2.434370561657294, 48.846655841752465 ], [ 2.434696145068084, 48.846875800999833 ], [ 2.435052696972211, 48.847073742144843 ], [ 2.435436814376056, 48.847247775830304 ], [ 2.435844831055777, 48.847396240879895 ], [ 2.436272852557957, 48.847517720161086 ], [ 2.436716793383756, 48.84761105411804 ], [ 2.436751938364088, 48.847616013865526 ], [ 2.43675208496224, 48.847616182835154 ], [ 2.437031383585377, 48.847873971087118 ], [ 2.437348545890275, 48.848111916473158 ], [ 2.437700356948898, 48.848327606692713 ], [ 2.438083250426039, 48.848518855041945 ], [ 2.43849334473347, 48.848683722591261 ], [ 2.438926482386844, 48.848820537850749 ], [ 2.439378272165933, 48.848927913723841 ], [ 2.439844133650233, 48.849004761576872 ], [ 2.440319343677553, 48.849050302281519 ], [ 2.44079908425354, 48.849064074118026 ], [ 2.441018797522685, 48.849063074060467 ], [ 2.441145439732619, 48.849061387324269 ], [ 2.444280928789218, 48.84899208333654 ], [ 2.444426080632971, 48.848987411034052 ], [ 2.446850126139078, 48.848884905144679 ], [ 2.447328456788179, 48.848848599581927 ], [ 2.44779880245276, 48.848780648694891 ], [ 2.44825636881192, 48.848681745119741 ], [ 2.448696491875289, 48.848552896994619 ], [ 2.449114685545001, 48.848395417678532 ], [ 2.449506687359806, 48.848210912357928 ], [ 2.449868501954157, 48.848001261677631 ], [ 2.4501964417886, 48.847768602563654 ], [ 2.450257979159721, 48.84771498760189 ], [ 2.450360966130083, 48.847702534478636 ], [ 2.451581676102783, 48.847534736886203 ], [ 2.451991699292334, 48.847478333707315 ], [ 2.452127218818818, 48.847458328182697 ], [ 2.454624633038774, 48.847064344787377 ], [ 2.457917375084367, 48.846642050283968 ], [ 2.458124095907911, 48.846612380386539 ], [ 2.46049042679117, 48.846236259334532 ], [ 2.460713712494351, 48.846196965301552 ], [ 2.462508007579676, 48.845850246144536 ], [ 2.462910731612842, 48.845759360684198 ], [ 2.463299573249903, 48.845645138237863 ], [ 2.464892137807182, 48.845119911188519 ], [ 2.465393078221705, 48.844928796631613 ], [ 2.466901420884515, 48.844269664990513 ], [ 2.467312614910375, 48.844068206095955 ], [ 2.467688706565105, 48.843838806087547 ], [ 2.468793703827842, 48.843088275973905 ], [ 2.469119441877335, 48.842842746381727 ], [ 2.470036020958299, 48.842074919022672 ], [ 2.470258093445844, 48.841872891547247 ], [ 2.470455214215023, 48.841659884505056 ], [ 2.47127857461658, 48.840685267263211 ], [ 2.472375593519538, 48.839574432277452 ], [ 2.47325069433716, 48.838791270491186 ], [ 2.473501882495297, 48.838542555369962 ], [ 2.473716195068248, 48.838279232897726 ], [ 2.473891699722744, 48.838003677994969 ], [ 2.474026814216558, 48.837718375870509 ], [ 2.474232696705985, 48.837198056795792 ], [ 2.474287610634769, 48.837059343258588 ], [ 2.474380359181805, 48.836770164073194 ], [ 2.474431605882308, 48.836476516655651 ], [ 2.474440899508256, 48.836180990602756 ], [ 2.474422498099773, 48.83571770054855 ], [ 2.474426296237307, 48.835684611544963 ], [ 2.4744166420913, 48.835380731304483 ], [ 2.474362635435752, 48.835078882381836 ], [ 2.474264780595426, 48.834781879235749 ], [ 2.474150172090958, 48.834500265043793 ], [ 2.473866929492615, 48.83380375705628 ], [ 2.473840139574411, 48.833748558191694 ], [ 2.473831912865043, 48.833714452626054 ], [ 2.473717241912793, 48.833422553305603 ], [ 2.473560787684314, 48.833139237422181 ], [ 2.473486379556317, 48.833022240029578 ], [ 2.473259957551453, 48.832714296140381 ], [ 2.473030742433676, 48.832441403759063 ], [ 2.472710670357566, 48.832110769566036 ], [ 2.47249396361765, 48.831914976216261 ], [ 2.472212410627795, 48.831684229782098 ], [ 2.471899243289394, 48.831471982913179 ], [ 2.471622344841714, 48.831301190098088 ], [ 2.471169489205748, 48.83105452052871 ], [ 2.470919694969363, 48.830934726108673 ], [ 2.470783528450662, 48.830871788336687 ], [ 2.470605941938965, 48.830792714536102 ], [ 2.469911272795504, 48.830437969939339 ], [ 2.469800609400588, 48.8303132657446 ], [ 2.469511197448202, 48.829658023466841 ], [ 2.469211087150808, 48.828463658093682 ], [ 2.469210479606758, 48.828362776998475 ], [ 2.469381959367583, 48.828249722223788 ], [ 2.469679889324191, 48.828010227306208 ], [ 2.469940700908869, 48.82775254849512 ], [ 2.470161866059713, 48.82747918403517 ], [ 2.470341241200054, 48.827192784207732 ], [ 2.470477088001204, 48.826896125630277 ], [ 2.470568090211784, 48.826592084331907 ], [ 2.470613366391386, 48.826283607866912 ], [ 2.470612478426123, 48.825973686736624 ], [ 2.470565435744676, 48.825665325396713 ], [ 2.47047269519514, 48.82536151313132 ], [ 2.470356470070088, 48.825058617413525 ], [ 2.470350105233048, 48.825042215251123 ], [ 2.469928416492814, 48.82396753076673 ], [ 2.469919453068984, 48.823945029595009 ], [ 2.469902019806554, 48.823901915037126 ], [ 2.469862311760076, 48.823803816495243 ], [ 2.469857333550685, 48.823791616041831 ], [ 2.469773269833685, 48.823587228183065 ], [ 2.469694717199138, 48.823381525849982 ], [ 2.469607171274194, 48.823151983138736 ], [ 2.469448696734839, 48.822816703371885 ], [ 2.469234642343174, 48.82249516848033 ], [ 2.46907502979217, 48.822287673889811 ], [ 2.469037461524902, 48.822239853232269 ], [ 2.468853992841975, 48.822011124446753 ], [ 2.468755339731403, 48.821886804359522 ], [ 2.468427062093517, 48.821387506906845 ], [ 2.468381045886534, 48.821306855139056 ], [ 2.468333587388263, 48.821219091579366 ], [ 2.468039212644578, 48.820532878836588 ], [ 2.467875708293571, 48.820216762557735 ], [ 2.467750460688751, 48.820011012804741 ], [ 2.467557193727679, 48.819693538157701 ], [ 2.467557706112652, 48.819689143982622 ], [ 2.467548331226013, 48.819383647165601 ], [ 2.467494145618073, 48.819080189876203 ], [ 2.467430351181171, 48.818886796724229 ], [ 2.467379056318125, 48.818663017296828 ], [ 2.467271707492904, 48.818377816474396 ], [ 2.467124550655303, 48.81810046963043 ], [ 2.466938869044723, 48.817833394121536 ], [ 2.466907166634714, 48.817792895192134 ], [ 2.466657931052522, 48.817511300829921 ], [ 2.466365911002896, 48.817248249455048 ], [ 2.466034242218336, 48.817006565186404 ], [ 2.465666485949552, 48.816788842709798 ], [ 2.465497336599248, 48.816698688593206 ], [ 2.465134635824776, 48.81650298330581 ], [ 2.465047958938692, 48.816457313919265 ], [ 2.464124843839696, 48.815982421721543 ], [ 2.464032313040764, 48.815934810057442 ], [ 2.463823546121143, 48.815833291535697 ], [ 2.462544751817635, 48.815246165637639 ], [ 2.462352693913366, 48.815156944986192 ], [ 2.46232396418981, 48.815133484125944 ], [ 2.461985930829064, 48.814908197384732 ], [ 2.461615288333133, 48.814706518141421 ], [ 2.46121579939868, 48.814530493627707 ], [ 2.46101380614142, 48.814450897562779 ], [ 2.460578780194476, 48.814299007625173 ], [ 2.460122362014686, 48.814177547781703 ], [ 2.459932271580127, 48.814134350133244 ], [ 2.459463579335616, 48.814045267544806 ], [ 2.458983557608879, 48.813988282279865 ], [ 2.458768370285347, 48.813970183313479 ], [ 2.458323031255755, 48.813946665670578 ], [ 2.457876314510933, 48.813950788352543 ], [ 2.457625329577182, 48.81396088777219 ], [ 2.457392904112194, 48.813974017035882 ], [ 2.455976925447489, 48.814077100485918 ], [ 2.455368395068152, 48.814115012789209 ], [ 2.453209470439997, 48.814147265912815 ], [ 2.45276511407469, 48.814167648959931 ], [ 2.452325578676333, 48.8142153372264 ], [ 2.451894702413248, 48.814289914281098 ], [ 2.449653544127898, 48.814752701057742 ], [ 2.449062093649991, 48.814829072106157 ], [ 2.447602974908075, 48.814875691211135 ], [ 2.445194322960582, 48.814805155913767 ], [ 2.444958348456504, 48.81480210606631 ], [ 2.442648387891492, 48.814810005611541 ], [ 2.442413343731667, 48.81481463781676 ], [ 2.441899874589068, 48.814833136753336 ], [ 2.441284139785506, 48.814882002216244 ], [ 2.440775168932794, 48.814944798662538 ], [ 2.440329360743688, 48.815014594672228 ], [ 2.439413794634202, 48.815189015053527 ], [ 2.437811087364957, 48.81508613349731 ], [ 2.43735290737786, 48.81507136500386 ], [ 2.436894699539027, 48.815085751660945 ], [ 2.436440707377141, 48.815129160230647 ], [ 2.435995135399883, 48.815201188696122 ], [ 2.435562110175531, 48.815301169982938 ], [ 2.435145642134461, 48.815428178133928 ], [ 2.434749588443463, 48.815581036880623 ], [ 2.434377617295894, 48.815758330531935 ], [ 2.43403317394781, 48.815958417079791 ], [ 2.433763599721943, 48.816148338271269 ], [ 2.43339205104938, 48.816176974081003 ], [ 2.432927703567214, 48.816244245979739 ], [ 2.432475811231575, 48.816341728547727 ], [ 2.432040868588439, 48.816468452228037 ], [ 2.431627201688803, 48.816623156625283 ], [ 2.431238925077752, 48.816804303035703 ], [ 2.430879900882114, 48.817010089744329 ], [ 2.430553700402958, 48.817238469937692 ], [ 2.430263568594572, 48.817487172054101 ], [ 2.430012391783047, 48.817753722369517 ], [ 2.429802668945712, 48.818035469594847 ], [ 2.429636486837419, 48.818329611240273 ], [ 2.429515499211734, 48.818633221484788 ], [ 2.429440910344526, 48.818943280274077 ], [ 2.429439360783043, 48.818960974940332 ], [ 2.429027400341451, 48.8192457575418 ], [ 2.428877510471624, 48.819360001534633 ], [ 2.428729531028186, 48.819453358729078 ], [ 2.426915322460418, 48.820717608667231 ], [ 2.42660723417396, 48.820954849729603 ], [ 2.426592600231219, 48.820968689768556 ], [ 2.426237395844633, 48.821021080584586 ], [ 2.425806977031721, 48.82106873597651 ], [ 2.425434660690091, 48.821099842299184 ], [ 2.425324044114846, 48.821106712929705 ], [ 2.424832146495651, 48.821120875295513 ], [ 2.42453981219758, 48.821121983794285 ], [ 2.424178097339183, 48.821114115580002 ], [ 2.423783733844565, 48.821100867293367 ], [ 2.423289354575988, 48.821072281356571 ], [ 2.423224641676572, 48.821068832446841 ], [ 2.42287779628871, 48.821051915568198 ], [ 2.422579097554923, 48.821037361587386 ], [ 2.422389494622324, 48.821012255567922 ], [ 2.42190717216298, 48.82098151909257 ], [ 2.421340106292203, 48.82096452007022 ], [ 2.42123672994637, 48.820962162694677 ], [ 2.420916949235955, 48.820957162982431 ], [ 2.420646287309451, 48.82095800621299 ], [ 2.420198214316054, 48.82096780564914 ], [ 2.41996691624895, 48.820976583320217 ], [ 2.419839323874774, 48.820983482924348 ], [ 2.419606657760918, 48.820999868900365 ], [ 2.419377620542245, 48.8210197639958 ], [ 2.419342309108664, 48.821022312240984 ], [ 2.4191046049924, 48.821043474323488 ], [ 2.418791423179711, 48.821076672436405 ], [ 2.41868963833753, 48.821088209897866 ], [ 2.418464351269554, 48.821115408357556 ], [ 2.418002982846516, 48.821186920613862 ], [ 2.417554646116829, 48.821288328588182 ], [ 2.417292018065756, 48.821367750702414 ], [ 2.41711466486859, 48.821408439628129 ], [ 2.416922369310685, 48.821455642311825 ], [ 2.416543158718704, 48.821554909565215 ], [ 2.416365841810627, 48.821599854196798 ], [ 2.416308111042304, 48.821615365322295 ], [ 2.4162758810112, 48.821621277888276 ], [ 2.416025783574456, 48.821670108541362 ], [ 2.41584708811705, 48.821696069221275 ], [ 2.415821254856445, 48.82169858439363 ], [ 2.415737836617897, 48.821703695938069 ], [ 2.415533011532915, 48.821710214922852 ], [ 2.415229547485194, 48.821711356219041 ], [ 2.41494562193058, 48.82170451725122 ], [ 2.41431558181731, 48.821663541847059 ], [ 2.413906701593308, 48.821648619009856 ], [ 2.413251841120189, 48.821643319314937 ], [ 2.412879901899274, 48.821649896857814 ], [ 2.412303136493967, 48.821674995415982 ], [ 2.412053702565135, 48.821690204374114 ], [ 2.411735321382359, 48.821715202944986 ], [ 2.41156928725958, 48.821730197999379 ], [ 2.411107314162439, 48.821777395314129 ], [ 2.410813475831146, 48.821813677057712 ], [ 2.410269506359923, 48.821892572621337 ], [ 2.409957258655425, 48.821945223440487 ], [ 2.409183199700677, 48.822094315200509 ], [ 2.408681067094904, 48.822211490650318 ], [ 2.408407279687628, 48.822286986639575 ], [ 2.408061292233901, 48.822393321504158 ], [ 2.407866653644488, 48.822459523654729 ], [ 2.407723513548241, 48.822508127363328 ], [ 2.40745262067986, 48.822607591352948 ], [ 2.407170930025072, 48.82271908584746 ], [ 2.406932544103075, 48.822819910587363 ], [ 2.40655485414119, 48.822990302487739 ], [ 2.40634673165582, 48.823089729361932 ], [ 2.40587384104547, 48.823328718436116 ], [ 2.40566506332343, 48.823440531332331 ], [ 2.405202068882793, 48.823703119864568 ], [ 2.405004094930714, 48.823821934161707 ], [ 2.404401796908163, 48.824204318293077 ], [ 2.404266487683175, 48.824293742684567 ], [ 2.403843086166376, 48.824585031072679 ], [ 2.403738391652901, 48.824659422980844 ], [ 2.403142185979366, 48.825097006132346 ], [ 2.403047010799439, 48.825169028575651 ], [ 2.402636631106792, 48.825489261872129 ], [ 2.401905236875411, 48.826043915098445 ], [ 2.401743104973233, 48.826159475895587 ], [ 2.401582186261332, 48.826267836900037 ], [ 2.401401857496353, 48.826379729393359 ], [ 2.401318166441138, 48.826426894968563 ], [ 2.401211121218081, 48.826477971597718 ], [ 2.401077993691692, 48.826535790854827 ], [ 2.400675439076898, 48.826703981621279 ], [ 2.400604281934841, 48.826719715169425 ], [ 2.400249689983206, 48.82674632941152 ], [ 2.399780194818779, 48.826813701176746 ], [ 2.399323352631514, 48.826911930049384 ], [ 2.398883802675904, 48.827040018520691 ], [ 2.398466008694223, 48.827196665851282 ], [ 2.398074213604084, 48.827380281273911 ], [ 2.397712396423068, 48.827589000140783 ], [ 2.396877398789901, 48.828121978080468 ], [ 2.396838052084575, 48.828147384331302 ], [ 2.396833480227261, 48.828150370667409 ], [ 2.396419844759774, 48.828418070049679 ], [ 2.396093120472331, 48.828652046035991 ], [ 2.395803846400314, 48.828906606994465 ], [ 2.395554979696249, 48.829179151120179 ], [ 2.395349064642574, 48.829466892766547 ], [ 2.395188206627552, 48.829766890909575 ], [ 2.395074050601406, 48.830076079201639 ], [ 2.39500776423381, 48.830391297307898 ], [ 2.394990025946017, 48.830709323205454 ], [ 2.39502101794133, 48.831026906115049 ], [ 2.395100424306515, 48.831340799729134 ] ] ] } }
]
}
